name,code,parkingTypeName,capacityClassic,capacityCargo,latitude,longitude,addressNL,Toegankelijk_voor,Tel,Mail,website,Prijs,Type_Abonnement,,
Nancy-Marolles CARGO,BXR1C,Buurtparking Cargo,0,3,50.83976,4.34768,Nancystraat 5-7,abonnees,02 414 03 00,cycloparking@cyclo.org,www.cycloparking.brussels,120 € / jaar,jaarlijks abonnement,,
Rue de Lausanne,PP05,Privéparking,2,1,50.829249,4.352356,Lausannestraat,abonnees,0493 66 95 33,j.goetgheluck@gmail.com,,240€/ jaar,,,
Ceria/Coovi,GP03,Fietsparking Ceria-Coovi,200,0,50.816373,4.289144,(M) CERIA*COOVI 1070 Anderlecht,abonnees,02 414 03 00,cycloparking@cyclo.org,www.cycloparking.brussels,30 € / jaar,jaarlijks abonnement,
De Brouckère,GP02,Fietsparking de Brouckère,304,0,50.85136,4.35284,(M) DE BROUCKÈRE 1000 Brussel,abonnees,02 414 03 00,cycloparking@cyclo.org,www.cycloparking.brussels,30 € / jaar,jaarlijks abonnement,
Bourse*Beurs,GP01,Fietsparking Beurs,610,18,50.84802,4.34918,(M) BEURS 1000 Brussel,abonnees,02 414 03 00,cycloparking@cyclo.org,www.cycloparking.brussels,30 € / jaar,jaarlijks abonnement,
Payfa,WB07,Fietsbox,5,0,50.79872,4.41805,Payfa-Fosseprezplein 1170 Watermaal-Bosvoorde,abonnees,02 414 03 00,cycloparking@cyclo.org,www.cycloparking.brussels,60€/ jaar,jaarlijks abonnement,
Mûriers I,WB06,Fietsbox,5,0,50.81013,4.39429,Moerbeziebomenlaan x Pleisterstraat 1170 Watermaal-Bosvoorde,abonnees,02 414 03 00,cycloparking@cyclo.org,www.cycloparking.brussels,60€/ jaar,jaarlijks abonnement,
Gratès Bien Faire,WB04,Fietsbox,5,0,50.80677,4.40163,Gratèsstraat x Bien-Fairestraat 1170 Watermaal-Bosvoorde,abonnees,02 414 03 00,cycloparking@cyclo.org,www.cycloparking.brussels,60€/ jaar,jaarlijks abonnement,
Sans Souci,XLR0,Buurtparking,9,1,50.83254,4.37247,Rue Sans Soucistraat 120 1050 Elsene,abonnees,02 414 03 00,cycloparking@cyclo.org,www.cycloparking.brussels,60€/ jaar,jaarlijks abonnement,
Laveleye,JT06,Fietsbox,5,0,50.87455,4.33523,Baron de Laveleyestraat 28 1090 Jette,abonnees,02 414 03 00,cycloparking@cyclo.org,www.cycloparking.brussels,60€/ jaar,jaarlijks abonnement,
Marchal,SK27,Fietsbox,5,0,50.85254,4.38883,Daillyplein x Felix Marchallaan 1030 Schaarbeek,abonnees,02 414 03 00,cycloparking@cyclo.org,www.cycloparking.brussels,60€/ jaar,jaarlijks abonnement,
Carton,JT33,Fietsbox,5,0,50.86697,4.332,Honoré Longtinstraat x Carton de Wiartlaan 1090 Jette,abonnees,02 414 03 00,cycloparking@cyclo.org,www.cycloparking.brussels,60€/ jaar,jaarlijks abonnement,
Garennes,WB03,Fietsbox,5,0,50.80224,4.4145,Konijnenwarandestraat x Drie Lindenstraat 1170 Watermaal-Bosvoorde,abonnees,02 414 03 00,cycloparking@cyclo.org,www.cycloparking.brussels,60€/ jaar,jaarlijks abonnement,
Solvay,XL07,Fietsbox,5,0,50.83614,4.36457,Solvaystraat x Sint-Bonifaasstraat 1050 Elsene,abonnees,02 414 03 00,cycloparking@cyclo.org,www.cycloparking.brussels,60€/ jaar,jaarlijks abonnement,
Rembucher,WB09,Fietsbox,5,0,50.78658,4.42472,Terugdrift 1170 Watermaal-Bosvoorde,abonnees,02 414 03 00,cycloparking@cyclo.org,www.cycloparking.brussels,60€/ jaar,jaarlijks abonnement,
Buis,WB12,Fietsbox,5,0,50.79295,4.42,Buksboomstraat x Terhulpsesteenweg 1170 Watermaal-Bosvoorde,abonnees,02 414 03 00,cycloparking@cyclo.org,www.cycloparking.brussels,60€/ jaar,jaarlijks abonnement,
Dewolfs,WB10,Fietsbox,5,0,50.79604,4.4171,Philippe Dewolfsstraat 3 1170 Watermaal-Bosvoorde,abonnees,02 414 03 00,cycloparking@cyclo.org,www.cycloparking.brussels,60€/ jaar,jaarlijks abonnement,
Heiligenborre,WB11,Fietsbox,5,0,50.7891,4.42107,Heiligenborre 90 1170 Watermaal-Bosvoorde,abonnees,02 414 03 00,cycloparking@cyclo.org,www.cycloparking.brussels,60€/ jaar,jaarlijks abonnement,
Kerckx,XL09,Fietsbox,5,0,50.83041,4.37441,Kerckxstraat x Maria-Hendrikastraat 1050 Elsene,abonnees,02 414 03 00,cycloparking@cyclo.org,www.cycloparking.brussels,60€/ jaar,jaarlijks abonnement,
Brochet,XL08,Fietsbox,5,0,50.83312,4.38107,Snoekstraat 64-64 1050 Elsene,abonnees,02 414 03 00,cycloparking@cyclo.org,www.cycloparking.brussels,60€/ jaar,jaarlijks abonnement,
Greyson,XL06,Fietsbox,5,0,50.82355,4.37658,Victor Greysonstraat 2 1050 Elsene,abonnees,02 414 03 00,cycloparking@cyclo.org,www.cycloparking.brussels,60€/ jaar,jaarlijks abonnement,
Maes,XL04,Fietsbox,5,0,50.83097,4.37088,Maesstraat 56 1050 Elsene,abonnees,02 414 03 00,cycloparking@cyclo.org,www.cycloparking.brussels,60€/ jaar,jaarlijks abonnement,
Lepoutre,XL14,Fietsbox,5,0,50.81967,4.3589,Louis Lepoutrelaan x Camille Lemonnierstraat 1050 Elsene,abonnees,02 414 03 00,cycloparking@cyclo.org,www.cycloparking.brussels,60€/ jaar,jaarlijks abonnement,
Saisons,XL13,Fietsbox,5,0,50.81875,4.38718,Maximiliaanstraat x Jaargetijdenlaan 1050 Elsene,abonnees,02 414 03 00,cycloparking@cyclo.org,www.cycloparking.brussels,60€/ jaar,jaarlijks abonnement,
Président,XL12,Fietsbox,5,0,50.83321,4.36284,Voorzittersstraat x Keyenveldstraat 1050 Elsene,abonnees,02 414 03 00,cycloparking@cyclo.org,www.cycloparking.brussels,60€/ jaar,jaarlijks abonnement,
Lanfray,XL10,Fietsbox,5,0,50.82567,4.37554,Lanfraystraat x Antoine Labarrestraat 1050 Elsene,abonnees,02 414 03 00,cycloparking@cyclo.org,www.cycloparking.brussels,60€/ jaar,jaarlijks abonnement,
Globe,VTR0,Buurtparking,10,0,50.81104,4.3248,Globelaan 4 x d'Huartstraat 1190 Vorst,abonnees,02 414 03 00,cycloparking@cyclo.org,www.cycloparking.brussels,60€/ jaar,jaarlijks abonnement,
Mélèzes,XL05,Fietsbox,5,0,50.82039,4.3634,Lariksenstraat 63 1050 Elsene,abonnees,02 414 03 00,cycloparking@cyclo.org,www.cycloparking.brussels,60€/ jaar,jaarlijks abonnement,
Deleers,AL14,Fietsbox,5,0,50.826013,4.302495,Henri Deleers Str. 74,abonnees,02 414 03 00,cycloparking@cyclo.org,www.cycloparking.brussels,60€/ jaar,jaarlijks abonnement,,
Houffalize,SK45,Fietsbox,5,0,50.86504,4.37853,Houffalizeplein x Jeruzalemstraat 1030 Schaarbeek,abonnees,02 414 03 00,cycloparking@cyclo.org,www.cycloparking.brussels,60€/ jaar,jaarlijks abonnement,
Coloniale,WB02,Fietsbox,5,0,50.80513,4.40655,Kolonialelaan x Berkenlaan 1170 Watermaal-Bosvoorde,abonnees,02 414 03 00,cycloparking@cyclo.org,www.cycloparking.brussels,60€/ jaar,jaarlijks abonnement,
Topaze,SK25,Fietsbox,5,0,50.85309,4.39193,Topaaslaan x Diamantlaan 1030 Schaarbeek,abonnees,02 414 03 00,cycloparking@cyclo.org,www.cycloparking.brussels,60€/ jaar,jaarlijks abonnement,
Bouvier,SG20,Fietsbox,5,0,50.82912,4.35275,Baron Alfred Bouviersquare 1060 Sint-Gillis,abonnees,02 414 03 00,cycloparking@cyclo.org,www.cycloparking.brussels,60€/ jaar,jaarlijks abonnement,
Chazal,SK19,Fietsbox,5,0,50.85561,4.38955,Chazallaan x Lambiottestraat 1030 Schaarbeek,abonnees,02 414 03 00,cycloparking@cyclo.org,www.cycloparking.brussels,60€/ jaar,jaarlijks abonnement,
Plasky,SK24,Fietsbox,5,0,50.85068,4.39612,Eugene Plaskysquare 1030 Schaarbeek,abonnees,02 414 03 00,cycloparking@cyclo.org,www.cycloparking.brussels,60€/ jaar,jaarlijks abonnement,
Stobbaerts,SK23,Fietsbox,5,0,50.85872,4.38765,Jan Stobbaertslaan x Vandenbusschestraat 1030 Schaarbeek,abonnees,02 414 03 00,cycloparking@cyclo.org,www.cycloparking.brussels,60€/ jaar,jaarlijks abonnement,
Voltaire II,SK21,Fietsbox,5,0,50.86997,4.37644,Voltairelaan 21 x Metsysstraat 1030 Schaarbeek,abonnees,02 414 03 00,cycloparking@cyclo.org,www.cycloparking.brussels,60€/ jaar,jaarlijks abonnement,
Renkin,SK20,Fietsbox,5,0,50.86688,4.37062,Vondelstraat x Renkinstraat 1030 Schaarbeek,abonnees,02 414 03 00,cycloparking@cyclo.org,www.cycloparking.brussels,60€/ jaar,jaarlijks abonnement,
Charbo,SK32,Fietsbox,5,0,50.851538,4.387613,Charbolaan 1 1030 Schaarbeek,abonnees,02 414 03 00,cycloparking@cyclo.org,www.cycloparking.brussels,60€/ jaar,jaarlijks abonnement,
Leduc,SK30,Fietsbox,5,0,50.85823,4.40128,Paul Leducstraat x Camille Wollèsstraat 1030 Schaarbeek,abonnees,02 414 03 00,cycloparking@cyclo.org,www.cycloparking.brussels,60€/ jaar,jaarlijks abonnement,
Colignon,SK43,Fietsbox,5,0,50.86786,4.37422,Colignonplein x Generaal Eenensstraat 1030 Schaarbeek,abonnees,02 414 03 00,cycloparking@cyclo.org,www.cycloparking.brussels,60€/ jaar,jaarlijks abonnement,
Joffre,VT09,Fietsbox,5,0,50.81451,4.33629,Maarschalk Joffrelaan 92 1190 Vorst,abonnees,02 414 03 00,cycloparking@cyclo.org,www.cycloparking.brussels,60€/ jaar,jaarlijks abonnement,
Duployé,SK42,Fietsbox,5,0,50.85855,4.37906,Emile Duployésquare 5 x Paul Deschanellaan 1030 Schaarbeek,abonnees,02 414 03 00,cycloparking@cyclo.org,www.cycloparking.brussels,60€/ jaar,jaarlijks abonnement,
De Tière,SK41,Fietsbox,5,0,50.87352,4.38441,Nestor de Tièrestraat x Eugène Demolderlaan 1030 Schaarbeek,abonnees,02 414 03 00,cycloparking@cyclo.org,www.cycloparking.brussels,60€/ jaar,jaarlijks abonnement,
Jones,UK08,Fietsbox,5,0,50.80753,4.35487,Roberts Jonesstraat x Léo Erreralaan 1180 Ukkel,abonnees,02 414 03 00,cycloparking@cyclo.org,www.cycloparking.brussels,60€/ jaar,jaarlijks abonnement,
Coghen,UK07,Fietsbox,5,0,50.80722,4.34043,Coghensquare x Coghenlaan 1180 Ukkel,abonnees,02 414 03 00,cycloparking@cyclo.org,www.cycloparking.brussels,60€/ jaar,jaarlijks abonnement,
Vanderkindere,UK05,Fietsbox,5,0,50.81411,4.35305,Vanderkinderestraat x Joseph Cuylitsstraat 1180 Ukkel,abonnees,02 414 03 00,cycloparking@cyclo.org,www.cycloparking.brussels,60€/ jaar,jaarlijks abonnement,
Asselbergs,UK03,Fietsbox,5,0,50.80526,4.33649,Alsembergsesteenweg x Alphonse Asselbergsstraat 1180 Ukkel,abonnees,02 414 03 00,cycloparking@cyclo.org,www.cycloparking.brussels,60€/ jaar,jaarlijks abonnement,
Doyenné,UK02,Fietsbox,5,0,50.80538,4.3383,Dekenijstraat x Verhulststraat 1180 Ukkel,abonnees,02 414 03 00,cycloparking@cyclo.org,www.cycloparking.brussels,60€/ jaar,jaarlijks abonnement,
Vossegat,UK01,Fietsbox,5,0,50.80261,4.33184,Vossegatlaan 1180 Ukkel,abonnees,02 414 03 00,cycloparking@cyclo.org,www.cycloparking.brussels,60€/ jaar,jaarlijks abonnement,
Silence,UK13,Fietsbox,5,0,50.78491,4.32861,Stiltelaan 4 1180 Ukkel,abonnees,02 414 03 00,cycloparking@cyclo.org,www.cycloparking.brussels,60€/ jaar,jaarlijks abonnement,
Mozart,UK12,Fietsbox,5,0,50.81032,4.33692,Mozartlaan 92 1180 Ukkel,abonnees,02 414 03 00,cycloparking@cyclo.org,www.cycloparking.brussels,60€/ jaar,jaarlijks abonnement,
Bonniers,UK11,Fietsbox,5,0,50.8136,4.3387,Oscar Van Goidtsnovenlaan 2 1180 Ukkel,abonnees,02 414 03 00,cycloparking@cyclo.org,www.cycloparking.brussels,60€/ jaar,jaarlijks abonnement,
Cavell,UK10,Fietsbox,5,0,50.81014,4.35772,Edith Cavellstraat 75 1180 Ukkel,abonnees,02 414 03 00,cycloparking@cyclo.org,www.cycloparking.brussels,60€/ jaar,jaarlijks abonnement,
Marlow,UK09,Fietsbox,5,0,50.80204,4.3402,Georges Marlowsquare 1180 Ukkel,abonnees,02 414 03 00,cycloparking@cyclo.org,www.cycloparking.brussels,60€/ jaar,jaarlijks abonnement,
Bourgogne,VT07,Fietsbox,5,0,50.81198,4.32652,Ukkelse laan 63 1190 Vorst,abonnees,02 414 03 00,cycloparking@cyclo.org,www.cycloparking.brussels,60€/ jaar,jaarlijks abonnement,
Albert,VT04,Fietsbox,5,0,50.8206,4.34479,Albertlaan 56 1190 Vorst,abonnees,02 414 03 00,cycloparking@cyclo.org,www.cycloparking.brussels,60€/ jaar,jaarlijks abonnement,
Béranger,VT03,Fietsbox,5,0,50.81904,4.32801,Bérangerstraat 1190 Vorst,abonnees,02 414 03 00,cycloparking@cyclo.org,www.cycloparking.brussels,60€/ jaar,jaarlijks abonnement,
Mystère,VT02,Fietsbox,5,0,50.8152,4.32693,Brusselse Steenweg 192 1190 Vorst,abonnees,02 414 03 00,cycloparking@cyclo.org,www.cycloparking.brussels,60€/ jaar,jaarlijks abonnement,
Rochefort,VT01,Fietsbox,5,0,50.82379,4.33471,Rochefortplein 1190 Vorst,abonnees,02 414 03 00,cycloparking@cyclo.org,www.cycloparking.brussels,60€/ jaar,jaarlijks abonnement,
Délivrance,VT06,Fietsbox,5,0,50.82204,4.34071,Kemmelberglaan 6 1190 Vorst,abonnees,02 414 03 00,cycloparking@cyclo.org,www.cycloparking.brussels,60€/ jaar,jaarlijks abonnement,
Charme,VT10,Fietsbox,5,0,50.82091,4.32783,Guillaume Van Haelenlaan 73 1190 Vorst,abonnees,02 414 03 00,cycloparking@cyclo.org,www.cycloparking.brussels,60€/ jaar,jaarlijks abonnement,
Decoster,VT14,Fietsbox,5,0,50.82628,4.32896,Montenegrostraat x Decosterstraat 1190 Vorst,abonnees,02 414 03 00,cycloparking@cyclo.org,www.cycloparking.brussels,60€/ jaar,jaarlijks abonnement,
Monténégro,VT12,Fietsbox,5,0,50.82667,4.33439,Montenegrostraat x Koningslaan 1190 Vorst,abonnees,02 414 03 00,cycloparking@cyclo.org,www.cycloparking.brussels,60€/ jaar,jaarlijks abonnement,
Faider,XL02,Fietsbox,5,0,50.82693,4.35974,Faiderstraat x Rue Paul Emile Jansonstraat 1050 Elsene,abonnees,02 414 03 00,cycloparking@cyclo.org,www.cycloparking.brussels,60€/ jaar,jaarlijks abonnement,
Griottiers,SK26,Fietsbox,5,0,50.84983,4.39387,Morellenboomsquare 1030 Schaarbeek,abonnees,02 414 03 00,cycloparking@cyclo.org,www.cycloparking.brussels,60€/ jaar,jaarlijks abonnement,
Riga,SK28,Fietsbox,5,0,50.87454,4.38626,François Rigasquare x Huart Hamoirlaan 1030 Schaarbeek,abonnees,02 414 03 00,cycloparking@cyclo.org,www.cycloparking.brussels,60€/ jaar,jaarlijks abonnement,
Impens II,SK22,Fietsbox,5,0,50.85947,4.385,Josse Impensstraat x Eisenhowelaan 1030 Schaarbeek,abonnees,02 414 03 00,cycloparking@cyclo.org,www.cycloparking.brussels,60€/ jaar,jaarlijks abonnement,
Monrose,SK38,Fietsbox,5,0,50.85669,4.37934,Monrosestraat x Van Hamméestraat 1030 Schaarbeek,abonnees,02 414 03 00,cycloparking@cyclo.org,www.cycloparking.brussels,60€/ jaar,jaarlijks abonnement,
Diamant,SK37,Fietsbox,5,0,50.84973,4.40005,Diamantlaan 184 x Adolphe Lacomblélaan 1030 Schaarbeek,abonnees,02 414 03 00,cycloparking@cyclo.org,www.cycloparking.brussels,60€/ jaar,jaarlijks abonnement,
Artan,SK36,Fietsbox,5,0,50.85602,4.3839,Kolonel Bremerplein x Artanstraat 1030 Schaarbeek,abonnees,02 414 03 00,cycloparking@cyclo.org,www.cycloparking.brussels,60€/ jaar,jaarlijks abonnement,
Renan,SK35,Fietsbox,5,0,50.86706,4.37995,Voltairelaan 120 x Ernest Renanlaan 1030 Schaarbeek,abonnees,02 414 03 00,cycloparking@cyclo.org,www.cycloparking.brussels,60€/ jaar,jaarlijks abonnement,
Zola,SK34,Fietsbox,5,0,50.87497,4.38027,Albert Giraudlaan 64 x Emile Zolalaan 1030 Schaarbeek,abonnees,02 414 03 00,cycloparking@cyclo.org,www.cycloparking.brussels,60€/ jaar,jaarlijks abonnement,
Mahillon,SK33,Fietsbox,5,0,50.85175,4.39333,Léon Mahillonlaan 58 x Diamantlaan 1030 Schaarbeek,abonnees,02 414 03 00,cycloparking@cyclo.org,www.cycloparking.brussels,60€/ jaar,jaarlijks abonnement,
Sleeckx,SK31,Fietsbox,5,0,50.87441,4.38127,Emile Verhaerenlaan x Sleeckxlaan 1030 Schaarbeek,abonnees,02 414 03 00,cycloparking@cyclo.org,www.cycloparking.brussels,60€/ jaar,jaarlijks abonnement,
Rome,SG19,Fietsbox,5,0,50.82958,4.3467,Romestraat x Moskoustraat 1060 Sint-Gillis,abonnees,02 414 03 00,cycloparking@cyclo.org,www.cycloparking.brussels,60€/ jaar,jaarlijks abonnement,
Morichar,SG18,Fietsbox,5,0,50.8278,4.3479,Studentenstraat x Parmastraat 1060 Sint-Gillis,abonnees,02 414 03 00,cycloparking@cyclo.org,www.cycloparking.brussels,60€/ jaar,jaarlijks abonnement,
Victoire,SG17,Fietsbox,5,0,50.8287,4.35064,Overwinningstraat 1060 Sint-Gillis,abonnees,02 414 03 00,cycloparking@cyclo.org,www.cycloparking.brussels,60€/ jaar,jaarlijks abonnement,
Defnet,SG16,Fietsbox,5,0,50.82873,4.33883,Defnetstraat 1060 Sint-Gillis,abonnees,02 414 03 00,cycloparking@cyclo.org,www.cycloparking.brussels,60€/ jaar,jaarlijks abonnement,
Tir,SG15,Fietsbox,5,0,50.82842,4.33796,Schietbaanstraat x Montenegrostraat 1060 Sint-Gilis,abonnees,02 414 03 00,cycloparking@cyclo.org,www.cycloparking.brussels,60€/ jaar,jaarlijks abonnement,
Diderich,SG14,Fietsbox,5,0,50.82277,4.344,Arthur Diderichstraat 1060 Sint-Gillis,abonnees,02 414 03 00,cycloparking@cyclo.org,www.cycloparking.brussels,60€/ jaar,jaarlijks abonnement,
Fort (Parc II),SG13,Fietsbox,5,0,50.82588,4.34078,Parklaan x Fortstraat 1060 Sint-Gillis,abonnees,02 414 03 00,cycloparking@cyclo.org,www.cycloparking.brussels,60€/ jaar,jaarlijks abonnement,
Ducpétiaux 131,SG11,Fietsbox,5,0,50.8222,4.34571,Ducpétiauxlaan 131 1060 Sint-Gillis ,abonnees,02 414 03 00,cycloparking@cyclo.org,www.cycloparking.brussels,60€/ jaar,jaarlijks abonnement,
Ducpétiaux 2,SG10,Fietsbox,5,0,50.82382,4.35371,Ducpétiauxlaan 2 1060 Sint-Gillis,abonnees,02 414 03 00,cycloparking@cyclo.org,www.cycloparking.brussels,60€/ jaar,jaarlijks abonnement,
Ducpétiaux 107,SG24,Fietsbox,5,0,50.8227,4.3481,Ducpétiauxlaan 107 1060 Sint-Gillis,abonnees,02 414 03 00,cycloparking@cyclo.org,www.cycloparking.brussels,60€/ jaar,jaarlijks abonnement,
Vanderstappen,SK09,Fietsbox,5,0,50.86728,4.39502,Charles Vanderstappenstraat 2 1030 Schaarbeek,abonnees,02 414 03 00,cycloparking@cyclo.org,www.cycloparking.brussels,60€/ jaar,jaarlijks abonnement,
Richir,SK08,Fietsbox,5,0,50.8666,4.39613,Herman Richirstraat 15 1030 Schaarbeek,abonnees,02 414 03 00,cycloparking@cyclo.org,www.cycloparking.brussels,60€/ jaar,jaarlijks abonnement,
Desmet,SK07,Fietsbox,5,0,50.86589,4.39473,Désiré Desmetstraat 26 x H. Krainsstraat 1030 Schaarbeek,abonnees,02 414 03 00,cycloparking@cyclo.org,www.cycloparking.brussels,60€/ jaar,jaarlijks abonnement,
De Craene,SK06,Fietsbox,5,0,50.86746,4.39399,Alexande De Craenestraat 38 x Julius Hostestraat 1030 Schaarbeek,abonnees,02 414 03 00,cycloparking@cyclo.org,www.cycloparking.brussels,60€/ jaar,jaarlijks abonnement,
Anatole France,SK05,Fietsbox,5,0,50.87836,4.38379,Anatole Francestraat 46 x Sniedersstraat 1030 Schaarbeek,abonnees,02 414 03 00,cycloparking@cyclo.org,www.cycloparking.brussels,60€/ jaar,jaarlijks abonnement,
Deschanel 82,SK04,Fietsbox,5,0,50.86049,4.37966,Paul Deschanellaan 82 1030 Schaarbeek,abonnees,02 414 03 00,cycloparking@cyclo.org,www.cycloparking.brussels,60€/ jaar,jaarlijks abonnement,
Milcamps,SK15,Fietsbox,5,0,50.85297,4.39537,Milcampslaan x Smaragdlaan 1030 Schaarbeek,abonnees,02 414 03 00,cycloparking@cyclo.org,www.cycloparking.brussels,60€/ jaar,jaarlijks abonnement,
Saint-Antoine,ET11,Fietsbox,5,0,50.82994,4.38628,Sint-Antoonplein 1040 Etterbeek,abonnees,02 414 03 00,cycloparking@cyclo.org,www.cycloparking.brussels,60€/ jaar,jaarlijks abonnement,
Oscar,UK06,Fietsbox,5,0,50.81458,4.33806,Maarschalk Joffrelaan x Oscar Van Goidtsnovenlaan 1180 Ukkel,abonnees,02 414 03 00,cycloparking@cyclo.org,www.cycloparking.brussels,60€/ jaar,jaarlijks abonnement,
Legrelle,JT26,Fietsbox,5,0,50.87639,4.32217,Stanislas Legrellestraat x Hubert Van Eepoelstraat 1090 Jette,abonnees,02 414 03 00,cycloparking@cyclo.org,www.cycloparking.brussels,60€/ jaar,jaarlijks abonnement,
Bergé,SK50,Fietsbox,5,0,50.86363,4.37627,Louis Bertrandlaan x Henri Bergéstraat 1030 Schaarbeek,abonnees,02 414 03 00,cycloparking@cyclo.org,www.cycloparking.brussels,60€/ jaar,jaarlijks abonnement,
Haeck,MK03,Fietsbox,5,0,50.86467,4.3369,Vlissingenstraat x Haeckstraat 1080 Sint-Jans-Molenbeek,abonnees,02 414 03 00,cycloparking@cyclo.org,www.cycloparking.brussels,60€/ jaar,jaarlijks abonnement,
Reper-Vreven,LA22,Fietsbox,5,0,50.8905,4.3412,Felix Sterkxstraat x Reper Vrevenstraat 1020 Laken,abonnees,02 414 03 00,cycloparking@cyclo.org,www.cycloparking.brussels,60€/ jaar,jaarlijks abonnement,
Drootbeek,LA39,Fietsbox,5,0,50.87227,4.34815,Drootbeekstraat x Moorsledestraat 1020 Laken,abonnees,02 414 03 00,cycloparking@cyclo.org,www.cycloparking.brussels,60€/ jaar,jaarlijks abonnement,
Médori,LA38,Fietsbox,5,0,50.88283,4.351674,Médoristraat x Tuinbouwersstraat 1020 Laken,abonnees,02 414 03 00,cycloparking@cyclo.org,www.cycloparking.brussels,60€/ jaar,jaarlijks abonnement,
Heymans,LA34,Fietsbox,5,0,50.88442,4.3408,de Smet de Naeyerlaan x Jean Heymansstraat 1020 Laken,abonnees,02 414 03 00,cycloparking@cyclo.org,www.cycloparking.brussels,60€/ jaar,jaarlijks abonnement,
Bockstael II,LA31,Fietsbox,5,0,50.87677,4.34711,Bockstaelplein (rechts)/ Tielemansstraat 1020 Laken,abonnees,02 414 03 00,cycloparking@cyclo.org,www.cycloparking.brussels,60€/ jaar,jaarlijks abonnement,
Vandervleet 1,JT29,Fietsbox,5,0,50.8731,4.3344,Onze-Lieve-Vrouw van Lourdeslaan x Jacques Vandervleetstraat 1090 Jette,abonnees,02 414 03 00,cycloparking@cyclo.org,www.cycloparking.brussels,60€/ jaar,jaarlijks abonnement,
Bockstael I,LA30,Fietsbox,5,0,50.87679,4.3471,Bockstaelplein (links)/ Tielemansstraat 1020 Laken,abonnees,02 414 03 00,cycloparking@cyclo.org,www.cycloparking.brussels,60€/ jaar,jaarlijks abonnement,
Mirepoix,JT25,Fietsbox,5,0,50.87251,4.33279,Levis Mirepoixlaan x Corneille De Clercqstraat 1090 Jette,abonnees,02 414 03 00,cycloparking@cyclo.org,www.cycloparking.brussels,60€/ jaar,jaarlijks abonnement,
Corneille II,JT24,Fietsbox,5,0,50.87092,4.33351,Corneille De Clercqstraat 110 1090 Jette,abonnees,02 414 03 00,cycloparking@cyclo.org,www.cycloparking.brussels,60€/ jaar,jaarlijks abonnement,
Peret II,JT23,Fietsbox,5,0,50.88522,4.3352,Léopold Peretstraat 7 1090 Jette,abonnees,02 414 03 00,cycloparking@cyclo.org,www.cycloparking.brussels,60€/ jaar,jaarlijks abonnement,
Baeck,JT21,Fietsbox,5,0,50.88048,4.31649,Baeckstraat 143 1090 Jette,abonnees,02 414 03 00,cycloparking@cyclo.org,www.cycloparking.brussels,60€/ jaar,jaarlijks abonnement,
Karreveld,MK08,Fietsbox,5,0,50.8584,4.31861,Karreveldlaan 11 1080 Sint-Jans-Molenbeek,abonnees,02 414 03 00,cycloparking@cyclo.org,www.cycloparking.brussels,60€/ jaar,jaarlijks abonnement,
Voltaire,MK07,Fietsbox,5,0,50.85657,4.33564,Voltaireplein 1080 Sint-Jans-Molenbeek,abonnees,02 414 03 00,cycloparking@cyclo.org,www.cycloparking.brussels,60€/ jaar,jaarlijks abonnement,
Houilleurs,MK06,Fietsbox,5,0,50.85655,4.3426,Koolmijngraversstraat 15A 1080 Sint-Jans-Molenbeek,abonnees,02 414 03 00,cycloparking@cyclo.org,www.cycloparking.brussels,60€/ jaar,jaarlijks abonnement,
Verrept Dekeyser,MK02,Fietsbox,5,0,50.85176,4.33347,Verrept-Dekeyserstraat x Olifantenstraat 1080 Sint-Jans-Molenbeek,abonnees,02 414 03 00,cycloparking@cyclo.org,www.cycloparking.brussels,60€/ jaar,jaarlijks abonnement,
Jubilé,MK01,Fietsbox,5,0,50.86348,4.33742,Jubelfeestlaan 52 1080 Sint-Jans-Molenbeek,abonnees,02 414 03 00,cycloparking@cyclo.org,www.cycloparking.brussels,60€/ jaar,jaarlijks abonnement,
Picard,MK18,Fietsbox,5,0,50.86425,4.34362,Picardstraat 102 1080 Sint-Jans-Molenbeek,abonnees,02 414 03 00,cycloparking@cyclo.org,www.cycloparking.brussels,60€/ jaar,jaarlijks abonnement,
Menteurs,MK15,Fietsbox,5,0,50.85438,4.32814,Oostendestraat x Kortrijkstraat 1080 Sint-Jans-Molenbeek,abonnees,02 414 03 00,cycloparking@cyclo.org,www.cycloparking.brussels,60€/ jaar,jaarlijks abonnement,
Laermans,MK11,Fietsbox,5,0,50.85761,4.33828,Mommaertsstraat x Eugène Laermansstraat 1080 Sint-Jans-Molenbeek,abonnees,02 414 03 00,cycloparking@cyclo.org,www.cycloparking.brussels,60€/ jaar,jaarlijks abonnement,
Jean Dubrucq,MK12,Fietsbox,5,0,50.8646,4.33377,Jean Dubrucqlaan 32 1080 Sint-Jans-Molenbeek,abonnees,02 414 03 00,cycloparking@cyclo.org,www.cycloparking.brussels,60€/ jaar,jaarlijks abonnement,
Crainhem,PR01,Park + Ride,10,0,50.84876,4.45911,P+R Kraainem 1200 Park & Ride,abonnees,02 414 03 00,cycloparking@cyclo.org,www.cycloparking.brussels,60€/ jaar,jaarlijks abonnement,
Stalle,PR04,Park + Ride,10,0,50.79544,4.31824,P+R Stalle 1180 Park & Ride,abonnees,02 414 03 00,cycloparking@cyclo.org,www.cycloparking.brussels,60€/ jaar,jaarlijks abonnement,
Delta,PR07,Park + Ride,10,0,50.81722,4.4053,P+R Delta 1160 Park & Ride,abonnees,02 414 03 00,cycloparking@cyclo.org,www.cycloparking.brussels,60€/ jaar,jaarlijks abonnement,
Crainhem 2,PR09,Park + Ride,10,0,50.84878,4.45845,P+R Kraainem 1200 Park & Ride,abonnees,02 414 03 00,cycloparking@cyclo.org,www.cycloparking.brussels,60€/ jaar,jaarlijks abonnement,
Fenaison,GA07,Fietsbox,5,0,50.87456,4.32036,Hooitijdstraat x Heidekenstraat 1083 Ganshoren,abonnees,02 414 03 00,cycloparking@cyclo.org,www.cycloparking.brussels,60€/ jaar,jaarlijks abonnement,
Rousseau,VT08,Fietsbox,5,0,50.8154,4.33349,Jupiterlaan x V. Rousseaulaan 1190 Vorst,abonnees,02 414 03 00,cycloparking@cyclo.org,www.cycloparking.brussels,60€/ jaar,jaarlijks abonnement,
Van Bortonne,JT07,Fietsbox,5,0,50.87896,4.32731,Van Bortonnestraat 26 1090 Jette,abonnees,02 414 03 00,cycloparking@cyclo.org,www.cycloparking.brussels,60€/ jaar,jaarlijks abonnement,
Minnebron,SK49,Fietsbox,5,0,50.86104,4.38465,Azalealaan 41 x Minnebronstraat 1030 Schaarbeek,abonnees,02 414 03 00,cycloparking@cyclo.org,www.cycloparking.brussels,60€/ jaar,jaarlijks abonnement,
Notre Dame,EV04,Fietsbox,5,0,50.87098,4.39776,Onze Lieve Vrouwlaan 61 1140 Evere,abonnees,02 414 03 00,cycloparking@cyclo.org,www.cycloparking.brussels,60€/ jaar,jaarlijks abonnement,
Keersmaeker,JT37,Fietsbox,5,0,50.87309,4.33106,Fernand Pirestraat x De Keersmaekerstraat 1090 Jette,abonnees,02 414 03 00,cycloparking@cyclo.org,www.cycloparking.brussels,60€/ jaar,jaarlijks abonnement,
Van Nerom,EV05,Fietsbox,5,0,50.87532,4.39878,H. Van Neromstraat 15 1140 Evere,abonnees,02 414 03 00,cycloparking@cyclo.org,www.cycloparking.brussels,60€/ jaar,jaarlijks abonnement,
Oud Kapelleke,EV03,Fietsbox,5,0,50.87462,4.40319,Oud-Kapellekelaan x Haechtsesteenweg (tegenover 1021) 1140 Evere,abonnees,02 414 03 00,cycloparking@cyclo.org,www.cycloparking.brussels,60€/ jaar,jaarlijks abonnement,
Verriest,EV02,Fietsbox,5,0,50.85747,4.4159,Hugo Verrieststraat 29 1140 Evere,abonnees,02 414 03 00,cycloparking@cyclo.org,www.cycloparking.brussels,60€/ jaar,jaarlijks abonnement,
Maquis,EV01,Fietsbox,5,0,50.85669,4.41384,Maquisstraat 141 1140 Evere,abonnees,02 414 03 00,cycloparking@cyclo.org,www.cycloparking.brussels,60€/ jaar,jaarlijks abonnement,
Cortenbach,HA37,Fietsbox,5,0,50.89252,4.41762,Sint-Elisabethstraat x Kortenbachstraat 1130 Haren,abonnees,02 414 03 00,cycloparking@cyclo.org,www.cycloparking.brussels,60€/ jaar,jaarlijks abonnement,
Hongrie,GA08,Fietsbox,5,0,50.872549,4.301683,Maria van Hongarijelaan x Malieplein 1083 Ganshoren,abonnees,02 414 03 00,cycloparking@cyclo.org,www.cycloparking.brussels,60€/ jaar,jaarlijks abonnement,
Alouette,MK14,Fietsbox,5,0,50.85368,4.31959,Klimopstraat x Gulden Bodemstraat 1080 Sint-Jans-Molenbeek,abonnees,02 414 03 00,cycloparking@cyclo.org,www.cycloparking.brussels,60€/ jaar,jaarlijks abonnement,
Riethuisen,GA06,Fietsbox,5,0,50.868514,4.319315,Vital Riethuisenlaan x  Hertog Janlaan 1083 Ganshoren,abonnees,02 414 03 00,cycloparking@cyclo.org,www.cycloparking.brussels,60€/ jaar,jaarlijks abonnement,
Vanderveken,GA05,Fietsbox,5,0,50.876455,4.301872,Vandervekenstraat 114 1083 Ganshoren,abonnees,02 414 03 00,cycloparking@cyclo.org,www.cycloparking.brussels,60€/ jaar,jaarlijks abonnement,
Beeckmans,GA03,Fietsbox,5,0,50.870447,4.311235,François Beeckmansstraat 35 1083 Ganshoren,abonnees,02 414 03 00,cycloparking@cyclo.org,www.cycloparking.brussels,60€/ jaar,jaarlijks abonnement,
Constitution,GA02,Fietsbox,5,0,50.867662,4.323551,Grondwetlaan x Broustinlaan 1083 Ganshoren,abonnees,02 414 03 00,cycloparking@cyclo.org,www.cycloparking.brussels,60€/ jaar,jaarlijks abonnement,
Centenaire,GA14,Fietsbox,5,0,50.875838,4.317659,Eeuwfeestsquare x Hervormingslaan 1083 Ganshoren,abonnees,02 414 03 00,cycloparking@cyclo.org,www.cycloparking.brussels,60€/ jaar,jaarlijks abonnement,
Beethoven,GA13,Fietsbox,5,0,50.877272,4.314479,Beethovenlaan x Verdilaan 1083 Ganshoren,abonnees,02 414 03 00,cycloparking@cyclo.org,www.cycloparking.brussels,60€/ jaar,jaarlijks abonnement,
Sippelberg,GA11,Fietsbox,5,0,50.869302,4.313993,Sippelberggaarde 8 1083 Ganshoren,abonnees,02 414 03 00,cycloparking@cyclo.org,www.cycloparking.brussels,60€/ jaar,jaarlijks abonnement,
Sermon,GA10,Fietsbox,5,0,50.867277,4.321153,Broustinlaan x Jacques Sermonlaan 1083 Ganshoren,abonnees,02 414 03 00,cycloparking@cyclo.org,www.cycloparking.brussels,60€/ jaar,jaarlijks abonnement,
Equité-Héroïsme,JT09,Fietsbox,5,0,50.87636,4.33256,Gerechtigheidsstraat 4 1090 Jette,abonnees,02 414 03 00,cycloparking@cyclo.org,www.cycloparking.brussels,60€/ jaar,jaarlijks abonnement,
Faes,JT04,Fietsbox,5,0,50.87308,4.32892,Edouard Faesstraat 10 1090 Jette,abonnees,02 414 03 00,cycloparking@cyclo.org,www.cycloparking.brussels,60€/ jaar,jaarlijks abonnement,
Loossens,JT18,Fietsbox,5,0,50.87847,4.33562,Joseph Loossensstraat 46 1090 Jette,abonnees,02 414 03 00,cycloparking@cyclo.org,www.cycloparking.brussels,60€/ jaar,jaarlijks abonnement,
Amnesty,JT17,Fietsbox,5,0,50.86938,4.32805,Odon Warlandlaan 2 1090 Jette,abonnees,02 414 03 00,cycloparking@cyclo.org,www.cycloparking.brussels,60€/ jaar,jaarlijks abonnement,
Odon Warland,JT16,Fietsbox,5,0,50.87183,4.33668,Bérréstraat 51 1090 Jette,abonnees,02 414 03 00,cycloparking@cyclo.org,www.cycloparking.brussels,60€/ jaar,jaarlijks abonnement,
Démineurs,JT15,Fietsbox,5,0,50.8789,4.33245,Ontmijnerslaan 31 1090 Jette,abonnees,02 414 03 00,cycloparking@cyclo.org,www.cycloparking.brussels,60€/ jaar,jaarlijks abonnement,
Broekaert,JT14,Fietsbox,5,0,50.88253,4.32398,Valère Broekaertstraat 83 1090 Jette,abonnees,02 414 03 00,cycloparking@cyclo.org,www.cycloparking.brussels,60€/ jaar,jaarlijks abonnement,
Werrie,JT13,Fietsbox,5,0,50.87796,4.32397,Vandenschrieckstraat 121 1090 Jette,abonnees,02 414 03 00,cycloparking@cyclo.org,www.cycloparking.brussels,60€/ jaar,jaarlijks abonnement,
Corneille I,JT11,Fietsbox,5,0,50.87047,4.33304,Odon Warlandlaan 103 1090 Jette,abonnees,02 414 03 00,cycloparking@cyclo.org,www.cycloparking.brussels,60€/ jaar,jaarlijks abonnement,
Laeken,JT10,Fietsbox,5,0,50.87094,4.32305,Lakenlaan 47 1090 Jette,abonnees,02 414 03 00,cycloparking@cyclo.org,www.cycloparking.brussels,60€/ jaar,jaarlijks abonnement,
ND Lourdes,JT20,Fietsbox,5,0,50.87354,4.33823,Onze-Lieve-Vrouw van Lourdeslaan 67 1090 Jette,abonnees,02 414 03 00,cycloparking@cyclo.org,www.cycloparking.brussels,60€/ jaar,jaarlijks abonnement,
Lenoir,JT28,Fietsbox,5,0,50.87619,4.33024,Ferdinand Lenoirstraat x De Smet de Naeyerlaan 1090 Jette,abonnees,02 414 03 00,cycloparking@cyclo.org,www.cycloparking.brussels,60€/ jaar,jaarlijks abonnement,
Peret I,JT22,Fietsbox,5,0,50.88444,4.33784,Léopold Peretstraat x De Smet de Naeyerlaan 1090 Jette,abonnees,02 414 03 00,cycloparking@cyclo.org,www.cycloparking.brussels,60€/ jaar,jaarlijks abonnement,
Vandervleet 2,JT30,Fietsbox,5,0,50.87181,4.33659,Jacques Vandervleetstraat x Odon Warlandlaan 1090 Jette,abonnees,02 414 03 00,cycloparking@cyclo.org,www.cycloparking.brussels,60€/ jaar,jaarlijks abonnement,
Gênes,VT05,Fietsbox,5,0,50.82786,4.33213,Monnikenstraat x Genuestraat 1190 Vorst,abonnees,02 414 03 00,cycloparking@cyclo.org,www.cycloparking.brussels,60€/ jaar,jaarlijks abonnement,
Cultes,BX07,Fietsbox,5,0,50.85011,4.36734,Eredienststraat 22 1000 Brussel,abonnees,02 414 03 00,cycloparking@cyclo.org,www.cycloparking.brussels,60€/ jaar,jaarlijks abonnement,
Stalingrad,BX06,Fietsbox,5,0,50.84011,4.34258,Stalingradlaan 100 1000 Brussel,abonnees,02 414 03 00,cycloparking@cyclo.org,www.cycloparking.brussels,60€/ jaar,jaarlijks abonnement,
Senne,BX04,Fietsbox,5,0,50.84732,4.34022,Zennestraat x t'Kintstraat 1000 Brussel,abonnees,02 414 03 00,cycloparking@cyclo.org,www.cycloparking.brussels,60€/ jaar,jaarlijks abonnement,
Fik Guidon,BA03,Fietsbox,5,0,50.85926,4.30272,Fik Guidonstraat x Groot-Bijgaardenstraat 1082 Sint-Agatha-Berchem,abonnees,02 414 03 00,cycloparking@cyclo.org,www.cycloparking.brussels,60€/ jaar,jaarlijks abonnement,
Wilder,BA02,Fietsbox,5,0,50.86102,4.2897,Wilderstraat x Louis de Smetstraat 1082 Sint-Agatha-Berchem,abonnees,02 414 03 00,cycloparking@cyclo.org,www.cycloparking.brussels,60€/ jaar,jaarlijks abonnement,
Baudouin,BA01,Fietsbox,5,0,50.86358,4.29609,Koning Boudewijnplein 1082 Sint-Agatha-Berchem,abonnees,02 414 03 00,cycloparking@cyclo.org,www.cycloparking.brussels,60€/ jaar,jaarlijks abonnement,
Malou,ET07,Fietsbox,5,0,50.83194,4.38528,Jules Maloulaan x Morgenlandstraat 1040 Etterbeek,abonnees,02 414 03 00,cycloparking@cyclo.org,www.cycloparking.brussels,60€/ jaar,jaarlijks abonnement,
Acacias,ET06,Fietsbox,5,0,50.83295,4.39196,Acaciasplein 1040 Etterbeek,abonnees,02 414 03 00,cycloparking@cyclo.org,www.cycloparking.brussels,60€/ jaar,jaarlijks abonnement,
Rinsdelle II,ET04,Fietsbox,5,0,50.83428,4.395413,Rinsdelleplein (rechts) 1040 Etterbeek,abonnees,02 414 03 00,cycloparking@cyclo.org,www.cycloparking.brussels,60€/ jaar,jaarlijks abonnement,
Rinsdelle I,ET03,Fietsbox,5,0,50.834346,4.395382,Rinsdelleplein (links) 1040 Etterbeek,abonnees,02 414 03 00,cycloparking@cyclo.org,www.cycloparking.brussels,60€/ jaar,jaarlijks abonnement,
Gare,ET02,Fietsbox,5,0,50.83712,4.4,Stationstraat x Frankenstraat 1040 Etterbeek,abonnees,02 414 03 00,cycloparking@cyclo.org,www.cycloparking.brussels,60€/ jaar,jaarlijks abonnement,
Theux,ET08,Fietsbox,5,0,50.83304,4.3826,de Theuxstraat (ter hoogte van # 48) x de Haernestraat 1040 Etterbeek,abonnees,02 414 03 00,cycloparking@cyclo.org,www.cycloparking.brussels,60€/ jaar,jaarlijks abonnement,
ex-Stévin,BX08,Fietsbox,5,0,50.84388,4.38695,Michel Angelolaan x Kortenberglaan 1000 Brussel,abonnees,02 414 03 00,cycloparking@cyclo.org,www.cycloparking.brussels,60€/ jaar,jaarlijks abonnement,
Commerce 4,BX03,Fietsbox,5,0,50.8558,4.34742,Handelskaai 4 1000 Brussel,abonnees,02 414 03 00,cycloparking@cyclo.org,www.cycloparking.brussels,60€/ jaar,jaarlijks abonnement,
Ortélius,BX25,Fietsbox,5,0,50.84672,4.37685,Orteliusstraat x Filips de Goedestraat 7 1000 Brussel,abonnees,02 414 03 00,cycloparking@cyclo.org,www.cycloparking.brussels,60€/ jaar,jaarlijks abonnement,
Dixmude 41,BX01,Fietsbox,5,0,50.857061,4.34695,Diksmuidelaan 41 1000 Brussel,abonnees,02 414 03 00,cycloparking@cyclo.org,www.cycloparking.brussels,60€/ jaar,jaarlijks abonnement,
Confédérés,BX18,Fietsbox,5,0,50.84789,4.38896,Eedgenotenstraat 102 1000 Brussel,abonnees,02 414 03 00,cycloparking@cyclo.org,www.cycloparking.brussels,60€/ jaar,jaarlijks abonnement,
Jean Jacobs,BX17,Fietsbox,5,0,50.83514,4.3517,Jan Jacobsplein 11 1000 Brussel,abonnees,02 414 03 00,cycloparking@cyclo.org,www.cycloparking.brussels,60€/ jaar,jaarlijks abonnement,
Cureghem,BX16,Fietsbox,5,0,50.84487,4.34122,Kuregemsestraat 41-43 1000 Brussel,abonnees,02 414 03 00,cycloparking@cyclo.org,www.cycloparking.brussels,60€/ jaar,jaarlijks abonnement,
Foulons,BX15,Fietsbox,5,0,50.84423,4.33951,Voldersstraat x Zuidlaan 100 1000 Brussel,abonnees,02 414 03 00,cycloparking@cyclo.org,www.cycloparking.brussels,60€/ jaar,jaarlijks abonnement,
Anneessens,BX10,Fietsbox,5,0,50.84395,4.34364,Anneessensplein x Damstraat 1000 Brussel,abonnees,02 414 03 00,cycloparking@cyclo.org,www.cycloparking.brussels,60€/ jaar,jaarlijks abonnement,
Dixmude 71,BX12,Fietsbox,5,0,50.85754,4.34829,Diksmuidelaan 71 1000 Brussel,abonnees,02 414 03 00,cycloparking@cyclo.org,www.cycloparking.brussels,60€/ jaar,jaarlijks abonnement,
Gueux,BX29,Fietsbox,5,0,50.84717,4.39086,Geuzenplein 1000 Brussel,abonnees,02 414 03 00,cycloparking@cyclo.org,www.cycloparking.brussels,60€/ jaar,jaarlijks abonnement,
de Witte de Haelen,BX27,Fietsbox,5,0,50.85473,4.34408,De Witte de Haelenstraat 1000 Brussel,abonnees,02 414 03 00,cycloparking@cyclo.org,www.cycloparking.brussels,60€/ jaar,jaarlijks abonnement,
Nouveau Marché aux Grains,BX28,Fietsbox,5,0,50.85129,4.34507,Nieuwe graanmarkt x Dansaertstraat 1000 Brussel,abonnees,02 414 03 00,cycloparking@cyclo.org,www.cycloparking.brussels,60€/ jaar,jaarlijks abonnement,
Laines,BX23,Fietsbox,5,0,50.83438,4.34917,Wolstraat 81 1000 Brussel,abonnees,02 414 03 00,cycloparking@cyclo.org,www.cycloparking.brussels,60€/ jaar,jaarlijks abonnement,
Waterloo Wilson,BX24,Fietsbox,5,0,50.84857,4.38083,John Waterloo Wilsonstraat x Grevelingenstraat 41 1000 Brussel,abonnees,02 414 03 00,cycloparking@cyclo.org,www.cycloparking.brussels,60€/ jaar,jaarlijks abonnement,
Franklin,BX21,Fietsbox,5,0,50.845553,4.387254,Franklinstraat x Correggiostraat 70 1000 Brussel,abonnees,02 414 03 00,cycloparking@cyclo.org,www.cycloparking.brussels,60€/ jaar,jaarlijks abonnement,
Bois de Construction,BX20,Fietsbox,5,0,50.85531,4.3468,Timmerhoutkaai 11 1000 Brussel,abonnees,02 414 03 00,cycloparking@cyclo.org,www.cycloparking.brussels,60€/ jaar,jaarlijks abonnement,
Martel,BX35,Fietsbox,5,0,50.84615,4.38182,Saint-Quentinstraat x Karel Martelstraat 1000 Brussel,abonnees,02 414 03 00,cycloparking@cyclo.org,www.cycloparking.brussels,60€/ jaar,jaarlijks abonnement,
Briques,BX33,Fietsbox,5,0,50.85356,4.34641,Varkensmarkt x Baksteenkaai 1000 Brussel,abonnees,02 414 03 00,cycloparking@cyclo.org,www.cycloparking.brussels,60€/ jaar,jaarlijks abonnement,
Warmoesberg,BX40,Fietsbox,5,0,50.84893,4.35688,Stormstraat x Warmoesberg 1000 Brussel,abonnees,02 414 03 00,cycloparking@cyclo.org,www.cycloparking.brussels,60€/ jaar,jaarlijks abonnement,
Commerce 50,BX02,Fietsbox,5,0,50.85724,4.34859,Handelskaai 50 1000 Brussel,abonnees,02 414 03 00,cycloparking@cyclo.org,www.cycloparking.brussels,60€/ jaar,jaarlijks abonnement,
Rogier,SK39,Fietsbox,5,0,50.85731,4.38682,Rogierlaan 269 x Alexandre Markelbachstraat 1030 Schaarbeek,abonnees,02 414 03 00,cycloparking@cyclo.org,www.cycloparking.brussels,60€/ jaar,jaarlijks abonnement,
Patrie 2,SK48,Fietsbox,5,0,50.85644,4.39145,Vaderlandsplein 46 1030 Schaarbeek,abonnees,02 414 03 00,cycloparking@cyclo.org,www.cycloparking.brussels,60€/ jaar,jaarlijks abonnement,
Deschanel,SK47,Fietsbox,5,0,50.85737,4.37813,Paul Deschanellaan 156 1030 Schaarbeek,abonnees,02 414 03 00,cycloparking@cyclo.org,www.cycloparking.brussels,60€/ jaar,jaarlijks abonnement,
Pogge,SK44,Fietsbox,5,0,50.86633,4.37534,Poggeplein 374 x Voglerstraat 1030 Schaarbeek,abonnees,02 414 03 00,cycloparking@cyclo.org,www.cycloparking.brussels,60€/ jaar,jaarlijks abonnement,
Fortin,SK40,Fietsbox,5,0,50.85587,4.40069,Fortinlaan x Gezellenstraat 1030 Schaarbeek,abonnees,02 414 03 00,cycloparking@cyclo.org,www.cycloparking.brussels,60€/ jaar,jaarlijks abonnement,
Groeselenberg,UK04,Fietsbox,5,0,50.80283,4.35334,Groeselenbergstraat x Bronweg 1180 Ukkel,abonnees,02 414 03 00,cycloparking@cyclo.org,www.cycloparking.brussels,60€/ jaar,jaarlijks abonnement,
Dupré,JT34,Fietsbox,5,0,50.8812,4.32664,Dupréstraat 83 1090 Jette,abonnees,02 414 03 00,cycloparking@cyclo.org,www.cycloparking.brussels,60€/ jaar,jaarlijks abonnement,
Vanderborght,JT35,Fietsbox,5,0,50.86737,4.32544,Vanderborghtstraat x Broustinlaan 1090 Jette,abonnees,02 414 03 00,cycloparking@cyclo.org,www.cycloparking.brussels,60€/ jaar,jaarlijks abonnement,
Broustin,JT31,Fietsbox,5,0,50.86763,4.32573,Broustinlaan 15 1090 Jette,abonnees,02 414 03 00,cycloparking@cyclo.org,www.cycloparking.brussels,60€/ jaar,jaarlijks abonnement,
Leemans,XL15,Fietsbox,5,0,50.82195,4.36355,Albert Leemansplein 14 1050 Elsene,abonnees,02 414 03 00,cycloparking@cyclo.org,www.cycloparking.brussels,60€/ jaar,jaarlijks abonnement,
Fernand,JT38,Fietsbox,5,0,50.87267,4.33257,Fernand Pirestraat x Levis Mirepoixlaan 1090 Jette,abonnees,02 414 03 00,cycloparking@cyclo.org,www.cycloparking.brussels,60€/ jaar,jaarlijks abonnement,
Mercator Algoet,AL08,Fietsbox,5,0,50.83815,4.29892,Mercatorstraat x Buffonstraat 1070 Anderlecht,abonnees,02 414 03 00,cycloparking@cyclo.org,www.cycloparking.brussels,60€/ jaar,jaarlijks abonnement,
Venizelos,AL07,Fietsbox,5,0,50.8237,4.29285,Venizeloslaan x P. Schlosserstraat 1070 Anderlecht,abonnees,02 414 03 00,cycloparking@cyclo.org,www.cycloparking.brussels,60€/ jaar,jaarlijks abonnement,
Lennik,AL06,Fietsbox,5,0,50.82057,4.28928,Klaverstraat x Lennikse Baan 1070 Anderlecht,abonnees,02 414 03 00,cycloparking@cyclo.org,www.cycloparking.brussels,60€/ jaar,jaarlijks abonnement,
Puccini,AL05,Fietsbox,5,0,50.84622,4.30669,Van Souststraat x Puccinistraat 1070 Anderlecht,abonnees,02 414 03 00,cycloparking@cyclo.org,www.cycloparking.brussels,60€/ jaar,jaarlijks abonnement,
Debussy,AL01,Fietsbox,5,0,50.826476,4.296622,Félicien Ropsstraat 1070 Anderlecht,abonnees,02 414 03 00,cycloparking@cyclo.org,www.cycloparking.brussels,60€/ jaar,jaarlijks abonnement,
Janson Meir,AL02,Fietsbox,5,0,50.83296,4.30292,Paul Jansonlaan 110 1070 Anderlecht,abonnees,02 414 03 00,cycloparking@cyclo.org,www.cycloparking.brussels,60€/ jaar,jaarlijks abonnement,
Drapeau,AL03,Fietsbox,5,0,50.83641,4.31016,Vaandelstraat 9-11 1070 Anderlecht,abonnees,02 414 03 00,cycloparking@cyclo.org,www.cycloparking.brussels,60€/ jaar,jaarlijks abonnement,
Saint Guidon,AL11,Fietsbox,5,0,50.83494,4.30678,Paul Jansonlaan x Processiestraat 1070 Anderlecht,abonnees,02 414 03 00,cycloparking@cyclo.org,www.cycloparking.brussels,60€/ jaar,jaarlijks abonnement,
Aviation,AL10,Fietsbox,5,0,50.84063,4.33888,Luchtvaartsquare 1070 Anderlecht,abonnees,02 414 03 00,cycloparking@cyclo.org,www.cycloparking.brussels,60€/ jaar,jaarlijks abonnement,
Graindor,AL12,Fietsbox,5,0,50.8443,4.31562,Norbert Gillelaan x Jules Graindorlaan 1070 Anderlecht,abonnees,02 414 03 00,cycloparking@cyclo.org,www.cycloparking.brussels,60€/ jaar,jaarlijks abonnement,
Basilique,BA06,Fietsbox,5,0,50.86452,4.30631,Basilieklaan x Klein Berchemstraat 1082 Sint-Agatha-Berchem,abonnees,02 414 03 00,cycloparking@cyclo.org,www.cycloparking.brussels,60€/ jaar,jaarlijks abonnement,
Van Perck,EV06,Fietsbox,5,0,50.8753,4.3946,W. Van Perckstraat 13 1140 Evere,abonnees,02 414 03 00,cycloparking@cyclo.org,www.cycloparking.brussels,60€/ jaar,jaarlijks abonnement,
Lorrain,MK16,Fietsbox,5,0,50.86252,4.34695,Le Lorrainstraat x Bouvierstraat 1080 Sint-Jans-Molenbeek,abonnees,02 414 03 00,cycloparking@cyclo.org,www.cycloparking.brussels,60€/ jaar,jaarlijks abonnement,
(M) Pétillon,ET12,Fietsbox,5,0,50.82705,4.40395,Metro Petillon 1040 Etterbeek,abonnees,02 414 03 00,cycloparking@cyclo.org,www.cycloparking.brussels,60€/ jaar,jaarlijks abonnement,
Kersbeek,VT11,Fietsbox,5,0,50.806,4.31926,Generaal Dumonceaulaan 98 1190 Vorst,abonnees,02 414 03 00,cycloparking@cyclo.org,www.cycloparking.brussels,60€/ jaar,jaarlijks abonnement,
Lemonnier,XL03,Fietsbox,5,0,50.81881,4.35926,Camille Lemonnierstraat 28 1050 Elsene,abonnees,02 414 03 00,cycloparking@cyclo.org,www.cycloparking.brussels,60€/ jaar,jaarlijks abonnement,
Longtin 2,JT36,Fietsbox,5,0,50.86966,4.33284,Honoré Longtinstraat x Firmin Lecharlierlaan 1090 Jette,abonnees,02 414 03 00,cycloparking@cyclo.org,www.cycloparking.brussels,60€/ jaar,jaarlijks abonnement,
Jupiter,VT13,Fietsbox,5,0,50.81919,4.33641,Alexandre Bertrandlaan x Jupiterlaan 1109 Vorst,abonnees,02 414 03 00,cycloparking@cyclo.org,www.cycloparking.brussels,60€/ jaar,jaarlijks abonnement,
Ulysse,VT15,Fietsbox,5,0,50.81122,4.32936,Ulysselaan x Domeinlaan 1190 Vorst,abonnees,02 414 03 00,cycloparking@cyclo.org,www.cycloparking.brussels,60€/ jaar,jaarlijks abonnement,
Penelope,VT16,Fietsbox,5,0,50.81324,4.33331,Neptunuslaan x Penelopelaan 1190 Vorst,abonnees,02 414 03 00,cycloparking@cyclo.org,www.cycloparking.brussels,60€/ jaar,jaarlijks abonnement,
Fenaison 2 (ex-Urbanisme),GA12,Fietsbox,5,0,50.87458,4.32043,Hooitijdstraat x Heidekenstraat 1083 Ganshoren,abonnees,02 414 03 00,cycloparking@cyclo.org,www.cycloparking.brussels,60€/ jaar,jaarlijks abonnement,
Lenoir 2,JT42,Fietsbox,5,0,50.87501,4.33308,Ferdinand Lenoirstraat 116 ,abonnees,02 414 03 00,cycloparking@cyclo.org,www.cycloparking.brussels,60€/ jaar,jaarlijks abonnement,,
Vandergoten II,AU31,Fietsbox,5,0,50.81743,4.42518,Antoine Vandergotenstraat 34 1160 Auderghem,abonnees,02 414 03 00,cycloparking@cyclo.org,www.cycloparking.brussels,60€/ jaar,jaarlijks abonnement,
Eglise,SG28,Fietsbox,5,0,50.83076,4.34329,Sint-Gilliskerkstraat 59 1060 Sant-Gillis,abonnees,02 414 03 00,cycloparking@cyclo.org,www.cycloparking.brussels,60€/ jaar,jaarlijks abonnement,
Victoire 2,SG29,Fietsbox,5,0,50.82754,4.35215,Overwinningstraat 172-174 1060 Sint-Gillis,abonnees,02 414 03 00,cycloparking@cyclo.org,www.cycloparking.brussels,60€/ jaar,jaarlijks abonnement,
Sainte-Adresse,AL15,Fietsbox,5,0,50.838039,4.304907,Sainte-Adresseplein 25,abonnees,02 414 03 00,cycloparking@cyclo.org,www.cycloparking.brussels,60€/ jaar,jaarlijks abonnement,,
Révision,AL18,Fietsbox,5,0,50.836968,4.329822,Herzieningslaan 9,abonnees,02 414 03 00,cycloparking@cyclo.org,www.cycloparking.brussels,60€/ jaar,jaarlijks abonnement,,
Schoonejans,AU25,Fietsbox,5,0,50.81294,4.43418,Pierre Schoonejansstraat 11 1160 Auderghem,abonnees,02 414 03 00,cycloparking@cyclo.org,www.cycloparking.brussels,60€/ jaar,jaarlijks abonnement,
Moulin à Papier,AU26,Fietsbox,5,0,50.81008,4.4308,Papiermolenstraat 54 1160 Auderghem,abonnees,02 414 03 00,cycloparking@cyclo.org,www.cycloparking.brussels,60€/ jaar,jaarlijks abonnement,
Claes,AU27,Fietsbox,5,0,50.81153,4.42003,Ernest Claeslaan 18 1160 Auderghem,abonnees,02 414 03 00,cycloparking@cyclo.org,www.cycloparking.brussels,60€/ jaar,jaarlijks abonnement,
Vandromme,AU28,Fietsbox,5,0,50.81723,4.41403,Vandrommelaan 93 1160 Auderghem,abonnees,02 414 03 00,cycloparking@cyclo.org,www.cycloparking.brussels,60€/ jaar,jaarlijks abonnement,
Canaris,AU29,Fietsbox,5,0,50.8206,4.41446,Kanarielaan 22 1160 Auderghem,abonnees,02 414 03 00,cycloparking@cyclo.org,www.cycloparking.brussels,60€/ jaar,jaarlijks abonnement,
Ecoliers,AU30,Fietsbox,5,0,50.81657,4.42123,Scholierenstraat 5 1160 Auderghem,abonnees,02 414 03 00,cycloparking@cyclo.org,www.cycloparking.brussels,60€/ jaar,jaarlijks abonnement,
Hankar,AU32,Fietsbox,5,0,50.82192,4.40695,Baron Robert Hankarsquare 1160 Auderghem,abonnees,02 414 03 00,cycloparking@cyclo.org,www.cycloparking.brussels,60€/ jaar,jaarlijks abonnement,
Abdication,BX09,Fietsbox,5,0,50.85047,4.38519,Luthersraat x Troonafstandsstraat,abonnees,02 414 03 00,cycloparking@cyclo.org,www.cycloparking.brussels,60€/ jaar,jaarlijks abonnement,,
Sauvagine,WB13,Fietsbox,5,0,50.80997,4.40356,Begoniastraat 7 x Waterwildlaan 1170 Watermaal-Bosvoorde,abonnees,02 414 03 00,cycloparking@cyclo.org,www.cycloparking.brussels,60€/ jaar,jaarlijks abonnement,
Pipette,WB14,Fietsbox,5,0,50.79923,4.41847,Gemeentelijke Godshuisstraat 3 1170 Watermaal-Bosvoorde,abonnees,02 414 03 00,cycloparking@cyclo.org,www.cycloparking.brussels,60€/ jaar,jaarlijks abonnement,
Vétérinaires,AL09,Fietsbox,5,0,50.83459,4.32671,Veeartsenstraat x Herzieningslaan 1070 Anderlecht,abonnees,02 414 03 00,cycloparking@cyclo.org,www.cycloparking.brussels,60€/ jaar,jaarlijks abonnement,
Vétérans Coloniaux,AL04,Fietsbox,5,0,50.84388,4.31255,Maurice Herbettelaan 1 1070 Anderlecht,abonnees,02 414 03 00,cycloparking@cyclo.org,www.cycloparking.brussels,60€/ jaar,jaarlijks abonnement,
Terdelt 1,SK51,Fietsbox,5,0,50.86876,4.38976,Terdeltplein x Dokter Dejasestraat,abonnees,02 414 03 00,cycloparking@cyclo.org,www.cycloparking.brussels,60€/ jaar,jaarlijks abonnement,,
Mûriers II,WB08,Fietsbox,5,0,50.81008,4.39429,Moerbeziebomenlaan x Pleisterstraat 1170 Watermaal-Bosvoorde,abonnees,02 414 03 00,cycloparking@cyclo.org,www.cycloparking.brussels,60€/ jaar,jaarlijks abonnement,
Hulpe,WB05,Fietsbox,5,0,50.79372,4.4185,Terhulpsesteenweg x Vorsterielaan 1170 Watermaal-Bosvoorde,abonnees,02 414 03 00,cycloparking@cyclo.org,www.cycloparking.brussels,60€/ jaar,jaarlijks abonnement,
Cerf Volant,WB01,Fietsbox,5,0,50.80444,4.40894,Vliegerlaan xWienerlaan 1170 Watermaal-Bosvoorde,abonnees,02 414 03 00,cycloparking@cyclo.org,www.cycloparking.brussels,60€/ jaar,jaarlijks abonnement,
Miroir,BX05,Fietsbox,5,0,50.83984,4.34805,Spiegelstraat 27 1000 Brussel,abonnees,02 414 03 00,cycloparking@cyclo.org,www.cycloparking.brussels,60€/ jaar,jaarlijks abonnement,
Taciturne,BX11,Fietsbox,5,0,50.84495,4.37928,Willem De Zwijgerstraat 33 1000 Brussel,abonnees,02 414 03 00,cycloparking@cyclo.org,www.cycloparking.brussels,60€/ jaar,jaarlijks abonnement,
Katteput,BA04,Fietsbox,5,0,50.86606,4.30536,Katteputstraat x de Mulderpark 1082 Sint-Agatha-Berchem,abonnees,02 414 03 00,cycloparking@cyclo.org,www.cycloparking.brussels,60€/ jaar,jaarlijks abonnement,
Michel-Ange,BX26,Fietsbox,5,0,50.84506,4.38583,Michel Angelolaan x Franklinstraat 50 1000 Brussel,abonnees,02 414 03 00,cycloparking@cyclo.org,www.cycloparking.brussels,60€/ jaar,jaarlijks abonnement,
Escaut,MK10,Fietsbox,5,0,50.86854,4.34161,Scheldestraat x Jubelfeestlaan 1080 Sint-Jans-Molenbeek,abonnees,02 414 03 00,cycloparking@cyclo.org,www.cycloparking.brussels,60€/ jaar,jaarlijks abonnement,
Vandergoten I,AU03,Fietsbox,5,0,50.81743,4.42502,Antoine Vandergotenstraat 34 1160 Auderghem,abonnees,02 414 03 00,cycloparking@cyclo.org,www.cycloparking.brussels,60€/ jaar,jaarlijks abonnement,
Constitution 2 (ex-Duc Jean),GA04,Fietsbox,5,0,50.867477,4.3234,Broustinlaan x Grondwetlaan 1083 Ganshoren,abonnees,02 414 03 00,cycloparking@cyclo.org,www.cycloparking.brussels,60€/ jaar,jaarlijks abonnement,
Demey,AU01,Fietsbox,5,0,50.81256,4.42261,Gustave Demeylaan 93 1160 Auderghem,abonnees,02 414 03 00,cycloparking@cyclo.org,www.cycloparking.brussels,60€/ jaar,jaarlijks abonnement,
Keyen,AU02,Fietsbox,5,0,50.81893,4.41486,Guillaume Keyenlaan 3 1160 Auderghem,abonnees,02 414 03 00,cycloparking@cyclo.org,www.cycloparking.brussels,60€/ jaar,jaarlijks abonnement,
Pequeur,AL13,Fietsbox,5,0,50.840971,4.336134,Robert Pequeursquare Brogniezstraat x Lambert Crickxstraat 1070 Anderlecht,abonnees,02 414 03 00,cycloparking@cyclo.org,www.cycloparking.brussels,60€/ jaar,jaarlijks abonnement
Vandenschrieck,JT12,Fietsbox,5,0,50.87867,4.32602,Vandenschrieckstraat 59 1090 Jette,abonnees,02 414 03 00,cycloparking@cyclo.org,www.cycloparking.brussels,60€/ jaar,jaarlijks abonnement,
Sainte-Anne,AU04,Fietsbox,5,0,50.8158,4.43387,Tervuursesteenweg 91 1160 Auderghem,abonnees,02 414 03 00,cycloparking@cyclo.org,www.cycloparking.brussels,60€/ jaar,jaarlijks abonnement,
Ambleve,AU05,Fietsbox,5,0,50.82424,4.40441,Amblèvestraat 13 1160 Auderghem,abonnees,02 414 03 00,cycloparking@cyclo.org,www.cycloparking.brussels,60€/ jaar,jaarlijks abonnement,
Paons,AU06,Fietsbox,5,0,50.81916,4.41816,Hertogendal 79 1160 Auderghem,abonnees,02 414 03 00,cycloparking@cyclo.org,www.cycloparking.brussels,60€/ jaar,jaarlijks abonnement,
Pinoy,AU07,Fietsbox,5,0,50.81105,4.42274,Edouard Pinoyplein 18 1160 Auderghem,abonnees,02 414 03 00,cycloparking@cyclo.org,www.cycloparking.brussels,60€/ jaar,jaarlijks abonnement,
Sacre Coeur,AU08,Fietsbox,5,0,50.81012,4.43609,Heilig-Hartsquare 1160 Auderghem,abonnees,02 414 03 00,cycloparking@cyclo.org,www.cycloparking.brussels,60€/ jaar,jaarlijks abonnement,
Villageois,AU09,Fietsbox,5,0,50.81663,4.43053,Dorpelingstraat 89 1160 Auderghem,abonnees,02 414 03 00,cycloparking@cyclo.org,www.cycloparking.brussels,60€/ jaar,jaarlijks abonnement,
Meunier,AU10,Fietsbox,5,0,50.81516,4.41727,Watermaalse Steenweg 108 1160 Auderghem,abonnees,02 414 03 00,cycloparking@cyclo.org,www.cycloparking.brussels,60€/ jaar,jaarlijks abonnement,
Chant d'Oiseau,AU11,Fietsbox,5,0,50.82077,4.41121,Hertogendal 328 1160 Auderghem,abonnees,02 414 03 00,cycloparking@cyclo.org,www.cycloparking.brussels,60€/ jaar,jaarlijks abonnement,
Valduc,AU12,Fietsbox,5,0,50.81906,4.41753,Hertogendal 126 1160 Auderghem,abonnees,02 414 03 00,cycloparking@cyclo.org,www.cycloparking.brussels,60€/ jaar,jaarlijks abonnement,
Rouge-Cloître,AU13,Fietsbox,5,0,50.81406,4.43418,Waversesteenweg 1917 1160 Auderghem,abonnees,02 414 03 00,cycloparking@cyclo.org,www.cycloparking.brussels,60€/ jaar,jaarlijks abonnement,
De Brouckère,AU14,Fietsbox,5,0,50.81835,4.42468,Henri de Brouckèrelaan 101 1160 Auderghem,abonnees,02 414 03 00,cycloparking@cyclo.org,www.cycloparking.brussels,60€/ jaar,jaarlijks abonnement,
Paulsen,AL16,Fietsbox,5,0,50.84332,4.30115,Prins van Luiklaan 33,abonnees,02 414 03 00,cycloparking@cyclo.org,www.cycloparking.brussels,60€/ jaar,jaarlijks abonnement,,
Taxandres,ET09,Fietsbox,5,0,50.83609,4.40145,Pater de Dekenstraat (tegenover #38) x Toxandriërsstraat 1040 Etterbeek,abonnees,02 414 03 00,cycloparking@cyclo.org,www.cycloparking.brussels,60€/ jaar,jaarlijks abonnement,
Thieffry,ET05,Fietsbox,5,0,50.83277,4.40204,Metro Thieffry 1040 Etterbeek,abonnees,02 414 03 00,cycloparking@cyclo.org,www.cycloparking.brussels,60€/ jaar,jaarlijks abonnement,
Commune,ET01,Fietsbox,5,0,50.836,4.38637,Sint-Pieterssteenweg x Keith Haringpark 1040 Etterbeek,abonnees,02 414 03 00,cycloparking@cyclo.org,www.cycloparking.brussels,60€/ jaar,jaarlijks abonnement,
Gerlache,ET10,Fietsbox,5,0,50.82901,4.38436,de Haernestraat x de Gerlachestraat 1040 Etterbeek,abonnees,02 414 03 00,cycloparking@cyclo.org,www.cycloparking.brussels,60€/ jaar,jaarlijks abonnement,
Artistes,LA32,Fietsbox,5,0,50.88011,4.34819,Kunstenaarsstraat (hoek Bockstael) 1020 Laken,abonnees,02 414 03 00,cycloparking@cyclo.org,www.cycloparking.brussels,60€/ jaar,jaarlijks abonnement,
Gezelle,GA09,Fietsbox,5,0,50.873913,4.314015,Guido Gezelleplein x de Rivierendreef 1083 Ganshoren,abonnees,02 414 03 00,cycloparking@cyclo.org,www.cycloparking.brussels,60€/ jaar,jaarlijks abonnement,
Dansette Résistance,JT08,Fietsbox,5,0,50.87746,4.33607,Dansettestraat 30 1090 Jette,abonnees,02 414 03 00,cycloparking@cyclo.org,www.cycloparking.brussels,60€/ jaar,jaarlijks abonnement,
Capart,JT03,Fietsbox,5,0,50.88676,4.32134,Capartlaan 51 1090 Jette,abonnees,02 414 03 00,cycloparking@cyclo.org,www.cycloparking.brussels,60€/ jaar,jaarlijks abonnement,
Wallons,JT02,Fietsbox,5,0,50.87465,4.32416,Walenstraat 35 1090 Jette,abonnees,02 414 03 00,cycloparking@cyclo.org,www.cycloparking.brussels,60€/ jaar,jaarlijks abonnement,
Flamands,JT01,Fietsbox,5,0,50.87493,4.32371,Vlamingenstraat 39 1090 Jette,abonnees,02 414 03 00,cycloparking@cyclo.org,www.cycloparking.brussels,60€/ jaar,jaarlijks abonnement,
Longtin,JT19,Fietsbox,5,0,50.86921,4.33265,Honoré Longtinstraat 117 1090 Jette,abonnees,02 414 03 00,cycloparking@cyclo.org,www.cycloparking.brussels,60€/ jaar,jaarlijks abonnement,
Exposition,JT27,Fietsbox,5,0,50.88503,4.31757,Oude-Afspanningsplein x Tentoonstellingslaan 1090 Jette,abonnees,02 414 03 00,cycloparking@cyclo.org,www.cycloparking.brussels,60€/ jaar,jaarlijks abonnement,
Ongena,JT32,Fietsbox,5,0,50.86601,4.33192,Ongenastraat x Honoré Longtinstraat 1090 Jette,abonnees,02 414 03 00,cycloparking@cyclo.org,www.cycloparking.brussels,60€/ jaar,jaarlijks abonnement,
Duchesse,MK05,Fietsbox,5,0,50.84976,4.32981,Hertogin van Brabantplaats 1080 Sint-Jans-Molenbeek,abonnees,02 414 03 00,cycloparking@cyclo.org,www.cycloparking.brussels,60€/ jaar,jaarlijks abonnement,
Karreveld 2,MK19,Fietsbox,5,0,50.86076,4.31767,Karreveldlaan 67 1080 Sint-Jans-Molenbeek,abonnees,02 414 03 00,cycloparking@cyclo.org,www.cycloparking.brussels,60€/ jaar,jaarlijks abonnement,
Jacobs,MK13,Fietsbox,5,0,50.86254,4.33881,Opzichtersstraat 180 1080 Sint-Jans-Molenbeek,abonnees,02 414 03 00,cycloparking@cyclo.org,www.cycloparking.brussels,60€/ jaar,jaarlijks abonnement,
Melpomène,MK17,Fietsbox,5,0,50.855854,4.316897,Melomènestraat 4 1080 Sint-Jans-Molenbeek,abonnees,02 414 03 00,cycloparking@cyclo.org,www.cycloparking.brussels,60€/ jaar,jaarlijks abonnement,
Herrmann Debroux I,PR05,Park + Ride,10,0,50.81224,4.42832,Herrmann-Debrouxlaan (onder het viaduct) 1160 Park & Ride,abonnees,02 414 03 00,cycloparking@cyclo.org,www.cycloparking.brussels,60€/ jaar,jaarlijks abonnement,
Fontainas,SG09,Fietsbox,5,0,50.83316,4.34045,Fontainasstraat x Vlogaertstraat 1060 Sint-Gillis,abonnees,02 414 03 00,cycloparking@cyclo.org,www.cycloparking.brussels,60€/ jaar,jaarlijks abonnement,
Roi,SG08,Fietsbox,5,0,50.83078,4.33364,Koningslaan x Merodestraat 1060 Sint-Gillis,abonnees,02 414 03 00,cycloparking@cyclo.org,www.cycloparking.brussels,60€/ jaar,jaarlijks abonnement,
Villas II,SG07,Fietsbox,5,0,50.82447,4.34174,Villalaan 28 1060 Sint-Gillis,abonnees,02 414 03 00,cycloparking@cyclo.org,www.cycloparking.brussels,60€/ jaar,jaarlijks abonnement,
Dumont,SG06,Fietsbox,5,0,50.82864,4.35192,Hermann Dumontplein 1060 Sint-Gillis,abonnees,02 414 03 00,cycloparking@cyclo.org,www.cycloparking.brussels,60€/ jaar,jaarlijks abonnement,
Villas I,SG05,Fietsbox,5,0,50.82461,4.34223,Villalaan 18 1060 Sint-Gillis,abonnees,02 414 03 00,cycloparking@cyclo.org,www.cycloparking.brussels,60€/ jaar,jaarlijks abonnement,
Berckmans,SG04,Fietsbox,5,0,50.83269,4.3485,Henri Jasparlaan 108 1060 Sint-Gillis,abonnees,02 414 03 00,cycloparking@cyclo.org,www.cycloparking.brussels,60€/ jaar,jaarlijks abonnement,
Parc,SG03,Fietsbox,5,0,50.8254,4.33917,Parklaan 77 1060 Sint-Gillis,abonnees,02 414 03 00,cycloparking@cyclo.org,www.cycloparking.brussels,60€/ jaar,jaarlijks abonnement,
Moulin,UK16,Fietsbox,5,0,50.79047,4.36572,Oude Molenstraat 107,abonnees,02 414 03 00,cycloparking@cyclo.org,www.cycloparking.brussels,60€/ jaar,jaarlijks abonnement,,
Expo,GA01,Fietsbox,5,0,50.874676,4.317618,Louis de Brouckèrestraat x  Wereldtentoonstellingslaan 1083 Ganshoren,abonnees,02 414 03 00,cycloparking@cyclo.org,www.cycloparking.brussels,60€/ jaar,jaarlijks abonnement,
Rodin,XL01,Fietsbox,5,0,50.82704,4.38027,Alphonse Hottatstraat x Auguste Rodinlaan 1050 Elsene,abonnees,02 414 03 00,cycloparking@cyclo.org,www.cycloparking.brussels,60€/ jaar,jaarlijks abonnement,
Saint-Job,UK15,Fietsbox,5,0,50.79399,4.36534,St.-Jobplein 9,abonnees,02 414 03 00,cycloparking@cyclo.org,www.cycloparking.brussels,60€/ jaar,jaarlijks abonnement,,
Wallons 2,JT39,Fietsbox,5,0,50.87518,4.32499,Walenstraat x Wemmelsesteenweg 1090 Jette,abonnees,02 414 03 00,cycloparking@cyclo.org,www.cycloparking.brussels,60€/ jaar,jaarlijks abonnement,
Grijse,JT40,Fietsbox,5,0,50.89005,4.32466,Edouard de Grijsestraatx Jean Baudouxstraat 1090 Jette,abonnees,02 414 03 00,cycloparking@cyclo.org,www.cycloparking.brussels,60€/ jaar,jaarlijks abonnement,
Bervoets,VT17,Fietsbox,5,0,50.81606,4.32102,M. Bervoetsstraat 115 1190 Vorst ,abonnees,02 414 03 00,cycloparking@cyclo.org,www.cycloparking.brussels,60€/ jaar,jaarlijks abonnement,
Janson Parvis,SG01,Fietsbox,5,0,50.83059,4.34645,Moskoustraat 24 1060 Sint-Gillies,abonnees,02 414 03 00,cycloparking@cyclo.org,www.cycloparking.brussels,60€/ jaar,jaarlijks abonnement,
Vlogaert,SG23,Fietsbox,5,0,50.83238,4.34075,Vlogaertstraat 22 1060 Sint-Gillis,abonnees,02 414 03 00,cycloparking@cyclo.org,www.cycloparking.brussels,60€/ jaar,jaarlijks abonnement,
Kemmel,SG22,Fietsbox,5,0,50.8237,4.34089,Kemmelberglaan x Savoiestraat 1060 Sint-Gillis,abonnees,02 414 03 00,cycloparking@cyclo.org,www.cycloparking.brussels,60€/ jaar,jaarlijks abonnement,
Loix,SG21,Fietsbox,5,0,50.8312,4.35317,Loixplein x Bronstraat 1060 Sint-Gillis,abonnees,02 414 03 00,cycloparking@cyclo.org,www.cycloparking.brussels,60€/ jaar,jaarlijks abonnement,
Guffens,SK03,Fietsbox,5,0,50.86792,4.39298,Guffensstraat x Julius Hostestraat 1030 Schaarbeek,abonnees,02 414 03 00,cycloparking@cyclo.org,www.cycloparking.brussels,60€/ jaar,jaarlijks abonnement,
Foucart,SK02,Fietsbox,5,0,50.86668,4.39383,Raymond Foucartstraat x Alexandre de Craenestraat 1030 Schaarbeek,abonnees,02 414 03 00,cycloparking@cyclo.org,www.cycloparking.brussels,60€/ jaar,jaarlijks abonnement,
Deschanel 183,SK01,Fietsbox,5,0,50.85735,4.37805,Paul Deschanellaan 183 x Van Hovestraat 1030 Schaarbeek,abonnees,02 414 03 00,cycloparking@cyclo.org,www.cycloparking.brussels,60€/ jaar,jaarlijks abonnement,
Voltaire,SK17,Fietsbox,5,0,50.86992,4.37644,Voltairelaan 21 Metsysstraat 1030 Schaarbeek,abonnees,02 414 03 00,cycloparking@cyclo.org,www.cycloparking.brussels,60€/ jaar,jaarlijks abonnement
Patrie,SK16,Fietsbox,5,0,50.85641,4.39147,Vaderlandsplein 46 1030 Schaarbeek,abonnees,02 414 03 00,cycloparking@cyclo.org,www.cycloparking.brussels,60€/ jaar,jaarlijks abonnement,
Huart Hamoir,SK14,Fietsbox,5,0,50.87558,4.38284,Huart Hamoirlaan x Sleeckxlaan 1030 Schaarbeek,abonnees,02 414 03 00,cycloparking@cyclo.org,www.cycloparking.brussels,60€/ jaar,jaarlijks abonnement,
Azalées,SK13,Fietsbox,5,0,50.8626,4.38083,Paul Deschanellaan x Azalealaan 1030 Schaarbeek,abonnees,02 414 03 00,cycloparking@cyclo.org,www.cycloparking.brussels,60€/ jaar,jaarlijks abonnement,
Bertrand,SK12,Fietsbox,5,0,50.86359,4.37511,Louis Bertrandlaan x Bijenkorfstraat 1030 Schaarbeek,abonnees,02 414 03 00,cycloparking@cyclo.org,www.cycloparking.brussels,60€/ jaar,jaarlijks abonnement,
Roland,SK11,Fietsbox,5,0,50.86399,4.39403,Arthur Rolandstraat 5 1030 Schaarbeek,abonnees,02 414 03 00,cycloparking@cyclo.org,www.cycloparking.brussels,60€/ jaar,jaarlijks abonnement,
Krains,SK10,Fietsbox,5,0,50.86482,4.39467,Hubert Krainsstraat 1 1030 Schaarbeek,abonnees,02 414 03 00,cycloparking@cyclo.org,www.cycloparking.brussels,60€/ jaar,jaarlijks abonnement,
Séverin,SK29,Fietsbox,5,0,50.87618,4.38949,Van Droogenbroeckstraat x Séverinstraat 1030 Schaarbeek,abonnees,02 414 03 00,cycloparking@cyclo.org,www.cycloparking.brussels,60€/ jaar,jaarlijks abonnement,
Wytsman,XL11,Fietsbox,5,0,50.82243,4.3845,Juliette Wytsmanstraat x Fritz Toussaintstraat 1050 Elsene,abonnees,02 414 03 00,cycloparking@cyclo.org,www.cycloparking.brussels,60€/ jaar,jaarlijks abonnement,
Pavie,BX36,Fietsbox,5,0,50.85014,4.38335,Inquisitiestraat x Paviastraat 1000 Brussel,abonnees,02 414 03 00,cycloparking@cyclo.org,www.cycloparking.brussels,60€/ jaar,jaarlijks abonnement,
CARGO,JTC0,Fietsbox,0,2,50.878833,4.326191,Vandenschrieckstraat 59 1090 Jette,abonnees,02 414 03 00,cycloparking@cyclo.org,www.cycloparking.brussels,60€/ jaar,jaarlijks abonnement,
Chalon,XL16,Fietsbox,5,0,50.8184,4.35962,Renier Chalonstraat 46 1050 Elsene,abonnees,02 414 03 00,cycloparking@cyclo.org,www.cycloparking.brussels,60€/ jaar,jaarlijks abonnement,
Ceuppens,VT18,Fietsbox,5,0,50.82433,4.33028,Wielemans Ceuppenslaan x Berthelotstraat 1190 Vorst,abonnees,02 414 03 00,cycloparking@cyclo.org,www.cycloparking.brussels,60€/ jaar,jaarlijks abonnement,
Saule,JT41,Fietsbox,5,0,50.87748,4.32256,Wilgstraat 1 x Slooverstraat,abonnees,02 414 03 00,cycloparking@cyclo.org,www.cycloparking.brussels,60€/ jaar,jaarlijks abonnement,,
Liebrecht,JT43,Fietsbox,5,0,50.89047,4.31774,Henri Liebrechtlaan 426,abonnees,02 414 03 00,cycloparking@cyclo.org,www.cycloparking.brussels,60€/ jaar,jaarlijks abonnement,,
Terdelt 2,SK52,Fietsbox,5,0,50.86872,4.38981,Terdeltplein x Dokter Dejasestraat ,abonnees,02 414 03 00,cycloparking@cyclo.org,www.cycloparking.brussels,60€/ jaar,jaarlijks abonnement,,
Conseil,AL17,Fietsbox,5,0,50.839389,4.33008,Raadsplein 6,abonnees,02 414 03 00,cycloparking@cyclo.org,www.cycloparking.brussels,60€/ jaar,jaarlijks abonnement,,
Volontaires I,AU15,Fietsbox,5,0,50.82625,4.40269,Vrijwilligerslaan 83 1160 Auderghem,abonnees,02 414 03 00,cycloparking@cyclo.org,www.cycloparking.brussels,60€/ jaar,jaarlijks abonnement,
Volontaires II,AU16,Fietsbox,5,0,50.82558,4.40112,Vrijwilligerslaan 47 1160 Auderghem,abonnees,02 414 03 00,cycloparking@cyclo.org,www.cycloparking.brussels,60€/ jaar,jaarlijks abonnement,
Bosnie II,SG27,Fietsbox,5,0,50.82806,4.33674,Bosniëstraat 44 1060 Sint-Gillis,abonnees,02 414 03 00,cycloparking@cyclo.org,www.cycloparking.brussels,60€/ jaar,jaarlijks abonnement,
Bosnie I,SG26,Fietsbox,5,0,50.82802,4.33668,Bosniëstraat 44 1060 Sint-Gillis,abonnees,02 414 03 00,cycloparking@cyclo.org,www.cycloparking.brussels,60€/ jaar,jaarlijks abonnement,
Impens,SK18,Fietsbox,5,0,50.85958,4.38491,Josse Impensstraat x Eisenhowerlaan 1030 Schaarbeek,abonnees,02 414 03 00,cycloparking@cyclo.org,www.cycloparking.brussels,60€/ jaar,jaarlijks abonnement,
Balis,AU17,Fietsbox,5,0,50.8198,4.41174,Thomas Balisplein 2 1160 Auderghem,abonnees,02 414 03 00,cycloparking@cyclo.org,www.cycloparking.brussels,60€/ jaar,jaarlijks abonnement,
Trois Ponts,AU18,Fietsbox,5,0,50.82028,4.40547,Driebruggenstraat 69 1160 Auderghem,abonnees,02 414 03 00,cycloparking@cyclo.org,www.cycloparking.brussels,60€/ jaar,jaarlijks abonnement,
Invalides,AU19,Fietsbox,5,0,50.81791,4.41148,Invalidenlaan 142 1160 Auderghem,abonnees,02 414 03 00,cycloparking@cyclo.org,www.cycloparking.brussels,60€/ jaar,jaarlijks abonnement,
Saint Julien,AU20,Fietsbox,5,0,50.81946,4.4082,Sint-Juliaanskerklaan 20 1160 Auderghem,abonnees,02 414 03 00,cycloparking@cyclo.org,www.cycloparking.brussels,60€/ jaar,jaarlijks abonnement,
Traquets,AU21,Fietsbox,5,0,50.82038,4.41415,Zwartkeeltjeslaan 3 1160 Auderghem,abonnees,02 414 03 00,cycloparking@cyclo.org,www.cycloparking.brussels,60€/ jaar,jaarlijks abonnement,
Amitié,AU22,Fietsbox,5,0,50.82458,4.40208,Vriendschapsplein 1160 Auderghem,abonnees,02 414 03 00,cycloparking@cyclo.org,www.cycloparking.brussels,60€/ jaar,jaarlijks abonnement,
Brassine,AU23,Fietsbox,5,0,50.82036,4.40349,Charles Brassinelaan 60 1160 Auderghem,abonnees,02 414 03 00,cycloparking@cyclo.org,www.cycloparking.brussels,60€/ jaar,jaarlijks abonnement,
Watermael,AU24,Fietsbox,5,0,50.81612,4.41813,Watermaelsesteenweg 87 1160 Auderghem,abonnees,02 414 03 00,cycloparking@cyclo.org,www.cycloparking.brussels,60€/ jaar,jaarlijks abonnement,
Volontaires III,AU33,Fietsbox,5,0,50.8262,4.40259,Vrijwilligerslaan 81 1160 Auderghem,abonnees,02 414 03 00,cycloparking@cyclo.org,www.cycloparking.brussels,60€/ jaar,jaarlijks abonnement,
Stassart,XL17,Fietsbox,5,0,50.83506,4.35931,de Stassartstraat x Lakenweversstraat,abonnees,02 414 03 00,cycloparking@cyclo.org,www.cycloparking.brussels,60€/ jaar,jaarlijks abonnement,,
Froidure,XL18,Fietsbox,5,0,50.81963,4.35367,Franz Merjaystraat x ingang tot Park Abt Froidure,abonnees,02 414 03 00,cycloparking@cyclo.org,www.cycloparking.brussels,60€/ jaar,jaarlijks abonnement,,
Bourgmestre,XL19,Fietsbox,5,0,50.82067,4.37701,Burgemeestersstraat x Renbaanlaan,abonnees,02 414 03 00,cycloparking@cyclo.org,www.cycloparking.brussels,60€/ jaar,jaarlijks abonnement,,
Liégeois,XL20,Fietsbox,5,0,50.82847,4.3779,Luikenaarsstraat x Alphonse Hottatstraat,abonnees,02 414 03 00,cycloparking@cyclo.org,www.cycloparking.brussels,60€/ jaar,jaarlijks abonnement,,
Boondael 586,XL21,Fietsbox,5,0,50.81051,4.39257,Boondaalse Steenweg 586,abonnees,02 414 03 00,cycloparking@cyclo.org,www.cycloparking.brussels,60€/ jaar,jaarlijks abonnement,,
Teirlinck,MK20,Fietsbox,5,0,50.85217,4.33032,Isidoor Teirlinckstraat x Onafhankelijkheidstraat,abonnees,02 414 03 00,cycloparking@cyclo.org,www.cycloparking.brussels,60€/ jaar,jaarlijks abonnement,,
Mexico,MK21,Fietsbox,5,0,50.86109,4.34194,Mexicostraat x Opzichterstraat,abonnees,02 414 03 00,cycloparking@cyclo.org,www.cycloparking.brussels,60€/ jaar,jaarlijks abonnement,,
Bruges,MK22,Fietsbox,5,0,50.85917,4.30959,Bruggestraat x Korenbeekstraat,abonnees,02 414 03 00,cycloparking@cyclo.org,www.cycloparking.brussels,60€/ jaar,jaarlijks abonnement,,
Fuchsias,MK23,Fietsbox,5,0,50.86112,4.32302,Rue des Fuschias x Av. du Sippelberg ,abonnees,02 414 03 00,cycloparking@cyclo.org,www.cycloparking.brussels,60€/ jaar,jaarlijks abonnement,,
Salukes,LA51,Fietsbox,5,0,50.88618,4.33866,Rue Ernest Salustraat 58,abonnees,02 414 03 00,cycloparking@cyclo.org,www.cycloparking.brussels,60€/ jaar,jaarlijks abonnement,,
Sainte-Marie,MK24,Fietsbox,5,0,50.85419,4.34162,Sint-mariastraat x Kleine Zennestraat,abonnees,02 414 03 00,cycloparking@cyclo.org,www.cycloparking.brussels,60€/ jaar,jaarlijks abonnement,,
Brabançonne,BX48,Fietsbox,5,0,50.84829,4.38493,Avenue de la Brabançonnelaan 23,abonnees,02 414 03 00,cycloparking@cyclo.org,www.cycloparking.brussels,60€/ jaar,jaarlijks abonnement,,
Nancy-Marolles,BXR1,Buurtparking,8,0,50.83978,4.34773,Nancystraat 5-7,abonnees,02 414 03 00,cycloparking@cyclo.org,www.cycloparking.brussels,60€/ jaar,jaarlijks abonnement,,
Ladders,BX49,Fietsbox,5,0,50.85557,4.35271,Laddersstraat 16,abonnees,02 414 03 00,cycloparking@cyclo.org,www.cycloparking.brussels,60€/ jaar,jaarlijks abonnement,,
Titien,BX45,Fietsbox,5,0,50.84632,4.38922,Rue Franklinstraat 120 ,abonnees,02 414 03 00,cycloparking@cyclo.org,www.cycloparking.brussels,60€/ jaar,jaarlijks abonnement,,
Buts,WP01,Fietsbox,5,0,50.83703,4.41772,Marcel Butsstraat 312,abonnees,02 414 03 00,cycloparking@cyclo.org,www.cycloparking.brussels,60€/ jaar,jaarlijks abonnement,,
Spa,BX47,Fietsbox,5,0,50.84719,4.37347,Hamerstraat 52,abonnees,02 414 03 00,cycloparking@cyclo.org,www.cycloparking.brussels,60€/ jaar,jaarlijks abonnement,,
White Star,WP02,Fietsbox,5,0,50.8339,4.4399,White Star-plein,abonnees,02 414 03 00,cycloparking@cyclo.org,www.cycloparking.brussels,60€/ jaar,jaarlijks abonnement,,
Briquetterie,LA50,Fietsbox,5,0,50.87325,4.35048,Rue François Lesnino Str. 58,abonnees,02 414 03 00,cycloparking@cyclo.org,www.cycloparking.brussels,60€/ jaar,jaarlijks abonnement,,
Valk,BX41,Fietsbox,5,0,50.83616,4.34982,Valkstraat x Montserrat Str. ,abonnees,02 414 03 00,cycloparking@cyclo.org,www.cycloparking.brussels,60€/ jaar,jaarlijks abonnement,,
Archers,KB01,Fietsbox,5,0,50.86554,4.33135,Boogschuttersstraat x Jetsesteenweg,abonnees,02 414 03 00,cycloparking@cyclo.org,www.cycloparking.brussels,60€/ jaar,jaarlijks abonnement,,
Autrique,KB02,Fietsbox,5,0,50.85891,4.33011,Sint-Annakerkstraat x Léon Autriquestraat,abonnees,02 414 03 00,cycloparking@cyclo.org,www.cycloparking.brussels,60€/ jaar,jaarlijks abonnement,,
Bastogne,KB04,Fietsbox,5,0,50.86274,4.31647,Bastenakenplein,abonnees,02 414 03 00,cycloparking@cyclo.org,www.cycloparking.brussels,60€/ jaar,jaarlijks abonnement,,
Liberté,KB05,Fietsbox,5,0,50.86219,4.32355,Vrijheidslaan x Normandiëstraat,abonnees,02 414 03 00,cycloparking@cyclo.org,www.cycloparking.brussels,60€/ jaar,jaarlijks abonnement,,
Noville,KB06,Fietsbox,5,0,50.85957,4.33419,Noville-square,abonnees,02 414 03 00,cycloparking@cyclo.org,www.cycloparking.brussels,60€/ jaar,jaarlijks abonnement,,
Seghers,KB07,Fietsbox,5,0,50.86343,4.32123,Segherslaan x Belgische Onafhankelijkheidslaan,abonnees,02 414 03 00,cycloparking@cyclo.org,www.cycloparking.brussels,60€/ jaar,jaarlijks abonnement,,
Simonis,KB08,Fietsbox,5,0,50.86274,4.33051,Herkoliersstraat x (M) Simonis-Elisabeth,abonnees,02 414 03 00,cycloparking@cyclo.org,www.cycloparking.brussels,60€/ jaar,jaarlijks abonnement,,
Perspective,WP03,Fietsbox,5,0,50.84433,4.46049,Verheydenlaan 45,abonnees,02 414 03 00,cycloparking@cyclo.org,www.cycloparking.brussels,60€/ jaar,jaarlijks abonnement,,
Poels 1,WP04,Fietsbox,5,0,50.83825,4.43135,Félix Poelsstraat 29,abonnees,02 414 03 00,cycloparking@cyclo.org,www.cycloparking.brussels,60€/ jaar,jaarlijks abonnement,,
Poels 2,WP05,Fietsbox,5,0,50.83824,4.43139,Félix Poelsstraat 29,abonnees,02 414 03 00,cycloparking@cyclo.org,www.cycloparking.brussels,60€/ jaar,jaarlijks abonnement,,
Gay 100,WP06,Fietsbox,5,0,50.83781,4.42673,François Gaystraat 100,abonnees,02 414 03 00,cycloparking@cyclo.org,www.cycloparking.brussels,60€/ jaar,jaarlijks abonnement,,
Titeca,WP07,Fietsbox,5,0,50.83565,4.43085,Paul Wemaerestraat 1,abonnees,02 414 03 00,cycloparking@cyclo.org,www.cycloparking.brussels,60€/ jaar,jaarlijks abonnement,,
Delacroix,WP08,Fietsbox,5,0,50.83269,4.43975,David van Beverstraat 31,abonnees,02 414 03 00,cycloparking@cyclo.org,www.cycloparking.brussels,60€/ jaar,jaarlijks abonnement,,
Fraeyman,WP09,Fietsbox,5,0,50.83309,4.43968,David van Beverstraat 27,abonnees,02 414 03 00,cycloparking@cyclo.org,www.cycloparking.brussels,60€/ jaar,jaarlijks abonnement,,
Desmedt,WP10,Fietsbox,5,0,50.84325,4.46471,François Desmedtstraat 122,abonnees,02 414 03 00,cycloparking@cyclo.org,www.cycloparking.brussels,60€/ jaar,jaarlijks abonnement,,
Milcamps,SK65,Fietsbox,5,0,50.84881,4.39364,Rassonstraat x Milcampslaan,abonnees,02 414 03 00,cycloparking@cyclo.org,www.cycloparking.brussels,60€/ jaar,jaarlijks abonnement,,
Stacquet,SK67,Fietsbox,5,0,50.85812,4.38877,Henri Stacquetstraat x Paul Devignestraat,abonnees,02 414 03 00,cycloparking@cyclo.org,www.cycloparking.brussels,60€/ jaar,jaarlijks abonnement,,
Frans Binjé,SK68,Fietsbox,5,0,50.85843,4.38458,Weldoenersplein x Frans Binjéstraat,abonnees,02 414 03 00,cycloparking@cyclo.org,www.cycloparking.brussels,60€/ jaar,jaarlijks abonnement,,
Grotte,JT05,Fietsbox,5,0,50.87526,4.33778,Grotplein 9 1090 Jette,abonnees,02 414 03 00,cycloparking@cyclo.org,www.cycloparking.brussels,60€/ jaar,jaarlijks abonnement,
Plasky 2,SK53,Fietsbox,5,0,50.85059,4.39655,Eugène Plaskysquare 93 x Léon Frédéricstraat ,abonnees,02 414 03 00,cycloparking@cyclo.org,www.cycloparking.brussels,60€/ jaar,jaarlijks abonnement,,
Smekens,SK54,Fietsbox,5,0,50.84855,4.40567,Aimé Smekensstraat x Kerselarenlaan,abonnees,02 414 03 00,cycloparking@cyclo.org,www.cycloparking.brussels,60€/ jaar,jaarlijks abonnement,,
Agriculture,SK56,Fietsbox,5,0,50.87344,4.38933,Charles Van Lerberghestraat x Landbouwstraat,abonnees,02 414 03 00,cycloparking@cyclo.org,www.cycloparking.brussels,60€/ jaar,jaarlijks abonnement,,
Voltaire 194,SK58,Fietsbox,5,0,50.8647,4.38051,Voltairelaan x Brusilia toren,abonnees,02 414 03 00,cycloparking@cyclo.org,www.cycloparking.brussels,60€/ jaar,jaarlijks abonnement,,
Vinçotte,SK61,Fietsbox,5,0,50.85229,4.38347,Thomas Vinçottestraat 65 x rue de la Cible,abonnees,02 414 03 00,cycloparking@cyclo.org,www.cycloparking.brussels,60€/ jaar,jaarlijks abonnement,,
Van Hammée,SK62,Fietsbox,5,0,50.85619,4.38222,Albert de Latourstraat x Van Hamméestraat,abonnees,02 414 03 00,cycloparking@cyclo.org,www.cycloparking.brussels,60€/ jaar,jaarlijks abonnement,,
Lepreux,KB03,Fietsbox,5,0,50.86518,4.31186,Omer Lepreux Str. 92,abonnees,02 414 03 00,cycloparking@cyclo.org,www.cycloparking.brussels,60€/ jaar,jaarlijks abonnement,,
Zola 2,SK69,Fietsbox,5,0,50.87544,4.38006,Emile Zolalaan x Iwan Gilkinstraat,abonnees,02 414 03 00,cycloparking@cyclo.org,www.cycloparking.brussels,60€/ jaar,jaarlijks abonnement,,
Erasme,PR03,Park + Ride,10,0,50.81575,4.26485,P+R Erasmus 1070 Park & Ride,abonnees,02 414 03 00,cycloparking@cyclo.org,www.cycloparking.brussels,60€/ jaar,jaarlijks abonnement,
Herrmann Debroux II,PR06,Park + Ride,10,0,50.81251,4.42825,Herrmann-Debrouxlaan (Metro) 1160 Park & Ride,abonnees,02 414 03 00,cycloparking@cyclo.org,www.cycloparking.brussels,60€/ jaar,jaarlijks abonnement,
Roi Baudouin,PR08,Park + Ride,10,0,50.89687,4.32922,Metro Koning Boudewijn 1020 Park & Ride,abonnees,02 414 03 00,cycloparking@cyclo.org,www.cycloparking.brussels,60€/ jaar,jaarlijks abonnement,
Bizet,PR10,Park + Ride,10,0,50.82578,4.29828,Bergensesteenweg x Wandelingstraat 1070 Park & Ride,abonnees,02 414 03 00,cycloparking@cyclo.org,www.cycloparking.brussels,60€/ jaar,jaarlijks abonnement,
Montagne de Sable,AUR0,Buurtparking,17,3,50.81607,4.42988,Waversesteenweg x Zavelberg,abonnees,02 414 03 00,cycloparking@cyclo.org,www.cycloparking.brussels,60€/ jaar,jaarlijks abonnement,,
Jourdan,ETR0,Buurtparking,30,0,50.83714,4.38033,Maalbeeklaan x Jourdanplein ,abonnees,02 414 03 00,cycloparking@cyclo.org,www.cycloparking.brussels,60€/ jaar,jaarlijks abonnement,,
Stockel,PR11,Park + Ride,10,0,50.84262,4.46377,P+R Stokkel,abonnees,02 414 03 00,cycloparking@cyclo.org,www.cycloparking.brussels,60€/ jaar,jaarlijks abonnement,,
Roodebeek,PR12,Park + Ride,10,0,50.84827,4.43597,P+R Roodebeek,abonnees,02 414 03 00,cycloparking@cyclo.org,www.cycloparking.brussels,60€/ jaar,jaarlijks abonnement,,